{
"type": "FeatureCollection",
"name": "JuneBuildings",
"crs": { "type": "name", "properties": { "name": "urn:ogc:def:crs:OGC:1.3:CRS84" } },
"features": [
{ "type": "Feature", "properties": { "fid": 1.0, "name": "On Campus Student Parking", "source": "SC_2023_RGB WMTS", "note": null }, "geometry": { "type": "Polygon", "coordinates": [ [ [ -80.850452016373865, 33.500783235196224 ], [ -80.850029673418234, 33.501053618519215 ], [ -80.849848507821036, 33.500860658649621 ], [ -80.850270963808015, 33.50058967625975 ], [ -80.850452016373865, 33.500783235196224 ] ] ] } },
{ "type": "Feature", "properties": { "fid": 2.0, "name": "On Campus Student Parking", "source": "SC_2023_RGB WMTS", "note": null }, "geometry": { "type": "Polygon", "coordinates": [ [ [ -80.849305240572619, 33.501504884659795 ], [ -80.848414014414729, 33.502118780061551 ], [ -80.848167968620132, 33.501886512869547 ], [ -80.84906160690727, 33.501258576340803 ], [ -80.849305240572619, 33.501504884659795 ] ] ] } },
{ "type": "Feature", "properties": { "fid": 3.0, "name": "On Campus Student Parking", "source": "SC_2023_RGB WMTS", "note": null }, "geometry": { "type": "Polygon", "coordinates": [ [ [ -80.848729695811599, 33.50080646223951 ], [ -80.847819790608881, 33.501178094084558 ], [ -80.847620168549099, 33.500864529820468 ], [ -80.848553285619218, 33.500508381377358 ], [ -80.848729695811599, 33.50080646223951 ] ] ] } },
{ "type": "Feature", "properties": { "fid": 4.0, "name": "Faculty / Staff Parking", "source": "SC_2023_RGB WMTS", "note": null }, "geometry": { "type": "Polygon", "coordinates": [ [ [ -80.84863000746752, 33.498892002859606 ], [ -80.848026749784395, 33.499170006221647 ], [ -80.847932506293603, 33.499029187513358 ], [ -80.848536014846431, 33.498750456836255 ], [ -80.84863000746752, 33.498892002859606 ] ] ] } },
{ "type": "Feature", "properties": { "fid": 5.0, "name": "Off Campus Student Parking", "source": "SC_2023_RGB WMTS", "note": null }, "geometry": { "type": "Polygon", "coordinates": [ [ [ -80.843637012100416, 33.498077241995816 ], [ -80.843511259287666, 33.497890724194882 ], [ -80.844802247844697, 33.497287494129345 ], [ -80.844929414697376, 33.497471499087332 ], [ -80.843637012100416, 33.498077241995816 ] ] ] } },
{ "type": "Feature", "properties": { "fid": 6.0, "name": "Faculty / Staff Parking", "source": "SC_2023_RGB WMTS", "note": null }, "geometry": { "type": "Polygon", "coordinates": [ [ [ -80.850139992422399, 33.497630254574275 ], [ -80.849421771710936, 33.49797463890576 ], [ -80.849215283256385, 33.497675174347378 ], [ -80.849960437244519, 33.497338275480978 ], [ -80.850139992422399, 33.497630254574275 ] ] ] } },
{ "type": "Feature", "properties": { "fid": 7.0, "name": "Faculty / Staff Parking", "source": "SC_2023_RGB WMTS", "note": null }, "geometry": { "type": "Polygon", "coordinates": [ [ [ -80.850095103627893, 33.49707624212293 ], [ -80.849888615173384, 33.497166082220751 ], [ -80.849691104477742, 33.496866614865482 ], [ -80.849906570691147, 33.496776774456897 ], [ -80.850095103627893, 33.49707624212293 ] ] ] } },
{ "type": "Feature", "properties": { "fid": 8.0, "name": "Faculty / Staff Parking", "source": "SC_2023_RGB WMTS", "note": null }, "geometry": { "type": "Polygon", "coordinates": [ [ [ -80.850481147260297, 33.497779987060646 ], [ -80.850139992422399, 33.497952179099826 ], [ -80.85003225931564, 33.497802446911265 ], [ -80.850391369671385, 33.497630254574275 ], [ -80.850481147260297, 33.497779987060646 ] ] ] } },
{ "type": "Feature", "properties": { "fid": 9.0, "name": "Faculty / Staff Parking", "source": "SC_2023_RGB WMTS", "note": null }, "geometry": { "type": "Polygon", "coordinates": [ [ [ -80.850570924849222, 33.497937205892619 ], [ -80.850364436394713, 33.498169290313221 ], [ -80.850238747770206, 33.498109397619075 ], [ -80.850454213983625, 33.497854853206711 ], [ -80.850570924849222, 33.497937205892619 ] ] ] } },
{ "type": "Feature", "properties": { "fid": 10.0, "name": "Queens Village E", "source": "SC_2023_RGB WMTS", "note": null }, "geometry": { "type": "Polygon", "coordinates": [ [ [ -80.849945075671798, 33.496588298645626 ], [ -80.849770979909593, 33.496666241790209 ], [ -80.849676713441184, 33.496520250741028 ], [ -80.849850130659078, 33.496440866565166 ], [ -80.849945075671798, 33.496588298645626 ] ] ] } },
{ "type": "Feature", "properties": { "fid": 11.0, "name": "Queens Village A", "source": "SC_2023_RGB WMTS", "note": null }, "geometry": { "type": "Polygon", "coordinates": [ [ [ -80.849506136022242, 33.496737365545492 ], [ -80.849323367576005, 33.496814719930768 ], [ -80.849233392768156, 33.496670686171498 ], [ -80.849414949076859, 33.496591634983162 ], [ -80.849506136022242, 33.496737365545492 ] ] ] } },
{ "type": "Feature", "properties": { "fid": 12.0, "name": "Queens Village B", "source": "SC_2023_RGB WMTS", "note": null }, "geometry": { "type": "Polygon", "coordinates": [ [ [ -80.849362491879958, 33.496523994104336 ], [ -80.849146227978594, 33.49661833107568 ], [ -80.849052759198159, 33.496464100271943 ], [ -80.849268225411592, 33.496374259445673 ], [ -80.849362491879958, 33.496523994104336 ] ] ] } },
{ "type": "Feature", "properties": { "fid": 13.0, "name": "Queens Village C", "source": "SC_2023_RGB WMTS", "note": null }, "geometry": { "type": "Polygon", "coordinates": [ [ [ -80.849175693672194, 33.496199241223714 ], [ -80.849219892212588, 33.496274322616721 ], [ -80.849039292559823, 33.49634805585378 ], [ -80.848948153038265, 33.496192415639307 ], [ -80.849129070148749, 33.496115966550803 ], [ -80.849175693672194, 33.496199241223714 ] ] ] } },
{ "type": "Feature", "properties": { "fid": 14.0, "name": "Queens Village D", "source": "SC_2023_RGB WMTS", "note": null }, "geometry": { "type": "Polygon", "coordinates": [ [ [ -80.849026728221205, 33.495986282736581 ], [ -80.848849934059587, 33.496061364314272 ], [ -80.848754989046867, 33.495897549879011 ], [ -80.848931559453106, 33.495823982350466 ], [ -80.849026728221205, 33.495986282736581 ] ] ] } },
{ "type": "Feature", "properties": { "fid": 15.0, "name": "Queens Village F", "source": "SC_2023_RGB WMTS", "note": null }, "geometry": { "type": "Polygon", "coordinates": [ [ [ -80.849789562288905, 33.496364420202383 ], [ -80.849610646726887, 33.496446675415861 ], [ -80.849515113781138, 33.496303135392097 ], [ -80.849697572474142, 33.496219439709201 ], [ -80.849789562288905, 33.496364420202383 ] ] ] } },
{ "type": "Feature", "properties": { "fid": 16.0, "name": "Queens Village G", "source": "SC_2023_RGB WMTS", "note": null }, "geometry": { "type": "Polygon", "coordinates": [ [ [ -80.849647019911913, 33.496159803090087 ], [ -80.849463304502777, 33.496242574593474 ], [ -80.849366980759399, 33.496093506262667 ], [ -80.849551024816705, 33.49601115182297 ], [ -80.849647019911913, 33.496159803090087 ] ] ] } },
{ "type": "Feature", "properties": { "fid": 17.0, "name": "Machine Shop 1", "source": "SC_2023_RGB WMTS", "note": null }, "geometry": { "type": "Polygon", "coordinates": [ [ [ -80.85100991063679, 33.496130940073009 ], [ -80.850772000026126, 33.496246984782196 ], [ -80.850645704386324, 33.496059999195261 ], [ -80.850881429935143, 33.495945329121319 ], [ -80.85100991063679, 33.496130940073009 ] ] ] } },
{ "type": "Feature", "properties": { "fid": 18.0, "name": "Machine Shop 2", "source": "SC_2023_RGB WMTS", "note": null }, "geometry": { "type": "Polygon", "coordinates": [ [ [ -80.850740649399029, 33.496256576111527 ], [ -80.850591683948053, 33.496328927225285 ], [ -80.8504852800545, 33.496167843530976 ], [ -80.850632608522517, 33.496098222519485 ], [ -80.850740649399029, 33.496256576111527 ] ] ] } },
{ "type": "Feature", "properties": { "fid": 19.0, "name": "Faculty / Staff Parking", "source": "SC_2023_RGB WMTS", "note": null }, "geometry": { "type": "Polygon", "coordinates": [ [ [ -80.851301687800813, 33.495546970788581 ], [ -80.850886340884074, 33.495736465382102 ], [ -80.850799580786259, 33.49561223899758 ], [ -80.851218648428585, 33.495425216522094 ], [ -80.851301687800813, 33.495546970788581 ] ] ] } },
{ "type": "Feature", "properties": { "fid": 20.0, "name": "Motor Pool", "source": "SC_2023_RGB WMTS", "note": null }, "geometry": { "type": "Polygon", "coordinates": [ [ [ -80.851835864454912, 33.495756601241304 ], [ -80.851701198071538, 33.495816495563155 ], [ -80.851656309277075, 33.495749114448166 ], [ -80.85179159247086, 33.495688686024529 ], [ -80.851835864454912, 33.495756601241304 ] ] ] } },
{ "type": "Feature", "properties": { "fid": 21.0, "name": "Faculty / Staff Parking", "source": "SC_2023_RGB WMTS", "note": null }, "geometry": { "type": "Polygon", "coordinates": [ [ [ -80.853489143818976, 33.495440232940147 ], [ -80.852968583231998, 33.495625890257351 ], [ -80.85286709028739, 33.495437502682513 ], [ -80.852145180794125, 33.495691416274248 ], [ -80.852064968628213, 33.495558999063938 ], [ -80.852733640344226, 33.495307392506803 ], [ -80.852763960359781, 33.495365150823815 ], [ -80.853353105707839, 33.495161399166264 ], [ -80.853489143818976, 33.495440232940147 ] ] ] } },
{ "type": "Feature", "properties": { "fid": 22.0, "name": "Faculty / Staff Parking", "source": "SC_2023_RGB WMTS", "note": null }, "geometry": { "type": "Polygon", "coordinates": [ [ [ -80.853353274231793, 33.495115331677077 ], [ -80.853022603670269, 33.495232733114491 ], [ -80.852666307152532, 33.494581166789651 ], [ -80.853017692721323, 33.49444504832838 ], [ -80.853353274231793, 33.495115331677077 ] ] ] } },
{ "type": "Feature", "properties": { "fid": 23.0, "name": "Faculty / Staff Parking", "source": "SC_2023_RGB WMTS", "note": null }, "geometry": { "type": "Polygon", "coordinates": [ [ [ -80.854533681002223, 33.495240010995609 ], [ -80.854102748575372, 33.495352313485128 ], [ -80.853908368458306, 33.494848613882247 ], [ -80.85380648253188, 33.494876898615871 ], [ -80.853748127099109, 33.494715930785098 ], [ -80.853712216063528, 33.494562449551481 ], [ -80.853770571496327, 33.494416454954802 ], [ -80.853869326844148, 33.494315381628283 ], [ -80.8539905265892, 33.494244255883352 ], [ -80.854057859780909, 33.494229282034865 ], [ -80.854245675332393, 33.494721332269542 ], [ -80.854960124549635, 33.494536245411219 ], [ -80.855027457741329, 33.49470844390197 ], [ -80.854848554134492, 33.494755698323416 ], [ -80.854865858081226, 33.494805773332196 ], [ -80.854418144458052, 33.494923709945986 ], [ -80.854533681002223, 33.495240010995609 ] ] ] } },
{ "type": "Feature", "properties": { "fid": 24.0, "name": "Faculty / Staff Parking", "source": "SC_2023_RGB WMTS", "note": null }, "geometry": { "type": "Polygon", "coordinates": [ [ [ -80.853658129164856, 33.494281410335226 ], [ -80.85318701716831, 33.494386507314807 ], [ -80.853133150614923, 33.494247999345063 ], [ -80.853608971836252, 33.494139438889569 ], [ -80.853658129164856, 33.494281410335226 ] ] ] } },
{ "type": "Feature", "properties": { "fid": 25.0, "name": "SpeechHearing Center", "source": "SC_2023_RGB WMTS", "note": null }, "geometry": { "type": "Polygon", "coordinates": [ [ [ -80.853382283424196, 33.494165643149913 ], [ -80.853153773017056, 33.494217903389696 ], [ -80.853031429199035, 33.493954505233106 ], [ -80.853296994714725, 33.493888626282214 ], [ -80.853382283424196, 33.494165643149913 ] ] ] } },
{ "type": "Feature", "properties": { "fid": 26.0, "name": "Moss Hall", "source": "SC_2023_RGB WMTS", "note": null }, "geometry": { "type": "Polygon", "coordinates": [ [ [ -80.85287504004674, 33.494195590866305 ], [ -80.852721824435037, 33.494235602051333 ], [ -80.852637129436076, 33.494000930524592 ], [ -80.852789751337284, 33.493963495793317 ], [ -80.85287504004674, 33.494195590866305 ] ] ] } },
{ "type": "Feature", "properties": { "fid": 27.0, "name": "Alumni House", "source": "SC_2023_RGB WMTS", "note": null }, "geometry": { "type": "Polygon", "coordinates": [ [ [ -80.852665646151237, 33.49422414997656 ], [ -80.852511440811597, 33.494259229729245 ], [ -80.852439618740434, 33.494038365239675 ], [ -80.852596729521082, 33.494008417468898 ], [ -80.852665646151237, 33.49422414997656 ] ] ] } },
{ "type": "Feature", "properties": { "fid": 28.0, "name": "Sponsored Programs Office", "source": "SC_2023_RGB WMTS", "note": null }, "geometry": { "type": "Polygon", "coordinates": [ [ [ -80.848729204133434, 33.495496166887555 ], [ -80.848541462097629, 33.495571810576685 ], [ -80.848477712313667, 33.495464196397897 ], [ -80.848666803530193, 33.495388890251043 ], [ -80.848729204133434, 33.495496166887555 ] ] ] } },
{ "type": "Feature", "properties": { "fid": 29.0, "name": "Adult Continuing Education", "source": "SC_2023_RGB WMTS", "note": null }, "geometry": { "type": "Polygon", "coordinates": [ [ [ -80.848443975606145, 33.495611260552572 ], [ -80.848313003642815, 33.495660018397331 ], [ -80.848237509123678, 33.495527387104552 ], [ -80.848369117627868, 33.495475124166994 ], [ -80.848443975606145, 33.495611260552572 ] ] ] } },
{ "type": "Feature", "properties": { "fid": 30.0, "name": "Campus Services", "source": "SC_2023_RGB WMTS", "note": null }, "geometry": { "type": "Polygon", "coordinates": [ [ [ -80.848212419113537, 33.495666249694075 ], [ -80.848086673203653, 33.495713565904147 ], [ -80.848029934195537, 33.495608702917238 ], [ -80.848156037192496, 33.495561357997047 ], [ -80.848212419113537, 33.495666249694075 ] ] ] } },
{ "type": "Feature", "properties": { "fid": 31.0, "name": "Track & Field Facility", "source": "SC_2023_RGB WMTS", "note": null }, "geometry": { "type": "Polygon", "coordinates": [ [ [ -80.843361727396939, 33.499614251124122 ], [ -80.843261454250907, 33.499593346939747 ], [ -80.843176848783912, 33.499619477169432 ], [ -80.843042106743908, 33.499642994369417 ], [ -80.842913631775531, 33.4996299292591 ], [ -80.842791423878751, 33.499588120892852 ], [ -80.842703684876, 33.499520182254642 ], [ -80.84262848001643, 33.499439178424026 ], [ -80.8425940111225, 33.499329431177742 ], [ -80.842600278194098, 33.499211844688048 ], [ -80.842919898847171, 33.498289438461512 ], [ -80.842988836635072, 33.498169237492853 ], [ -80.843095376852744, 33.498098684672662 ], [ -80.843245786571828, 33.498051649427239 ], [ -80.843402463362537, 33.498049036357308 ], [ -80.843552873081578, 33.498098684672662 ], [ -80.843659413299292, 33.498171850559167 ], [ -80.843722084015567, 33.498247629447853 ], [ -80.843759686445324, 33.49834692582229 ], [ -80.843759686445324, 33.49847235265878 ], [ -80.843361727396939, 33.499614251124122 ] ] ] } },
{ "type": "Feature", "properties": { "fid": 32.0, "name": "Y-Hut", "source": "SC_2023_RGB WMTS", "note": null }, "geometry": { "type": "Polygon", "coordinates": [ [ [ -80.853311377952025, 33.497037468949124 ], [ -80.853260378329409, 33.496932629172406 ], [ -80.853463190782193, 33.496859439064366 ], [ -80.853511818329352, 33.49696823514855 ], [ -80.853311377952025, 33.497037468949124 ] ] ] } },
{ "type": "Feature", "properties": { "fid": 33.0, "name": "S-H-M Memorial Square", "source": "SC_2023_RGB WMTS", "note": null }, "geometry": { "type": "Polygon", "coordinates": [ [ [ -80.853114940337136, 33.496088138409029 ], [ -80.853745517606271, 33.495861781288376 ], [ -80.853890100885991, 33.496155345318179 ], [ -80.853900704997457, 33.49617833714354 ], [ -80.853904946642047, 33.496200444662172 ], [ -80.85390388623091, 33.49622343647556 ], [ -80.853897523764033, 33.496242891082105 ], [ -80.853887980063689, 33.496257039884135 ], [ -80.853876315541072, 33.496267651484139 ], [ -80.853861469785016, 33.496274725883417 ], [ -80.853313237221712, 33.496457775763737 ], [ -80.853114940337136, 33.496088138409029 ] ] ] } },
{ "type": "Feature", "properties": { "fid": 34.0, "name": "Faculty/Staff Parking", "source": "SC_2023_RGB WMTS", "note": null }, "geometry": { "type": "Polygon", "coordinates": [ [ [ -80.852206614882817, 33.496795914479549 ], [ -80.852333366273214, 33.496656273868602 ], [ -80.852751994718616, 33.496940403485752 ], [ -80.852829906123702, 33.497085861973233 ], [ -80.852838046121263, 33.497102347253076 ], [ -80.852848511832391, 33.497125620583944 ], [ -80.852848511832391, 33.497141136134402 ], [ -80.852842697548439, 33.49715277279541 ], [ -80.852598955526148, 33.497250809601425 ], [ -80.852742691864279, 33.497520296534205 ], [ -80.852340343413999, 33.497732664421356 ], [ -80.85214013338954, 33.497610497894428 ], [ -80.852258705402377, 33.497477227107559 ], [ -80.852353219325636, 33.497532398372165 ], [ -80.852458903076226, 33.497409158615753 ], [ -80.852326583583633, 33.497331775423227 ], [ -80.852583380483679, 33.497035436391918 ], [ -80.852206614882817, 33.496795914479549 ] ] ] } },
{ "type": "Feature", "properties": { "fid": 35.0, "name": "W.C Lewis Building", "source": "SC_2023_RGB WMTS", "note": null }, "geometry": { "type": "Polygon", "coordinates": [ [ [ -80.851356398601254, 33.495999159446654 ], [ -80.851073854166884, 33.496140319472751 ], [ -80.850834582303548, 33.495779458797799 ], [ -80.851068045994637, 33.495672304524433 ], [ -80.851125340398852, 33.495755577117741 ], [ -80.851175671981068, 33.495732759071132 ], [ -80.851356398601254, 33.495999159446654 ] ] ] } },
{ "type": "Feature", "properties": { "fid": 36.0, "name": "Mitchell Hall", "source": "SC_2023_RGB WMTS", "note": null }, "geometry": { "type": "Polygon", "coordinates": [ [ [ -80.847165202073711, 33.497505722198824 ], [ -80.847051902073702, 33.497549722198819 ], [ -80.847058202073711, 33.497560922198822 ], [ -80.847019002073708, 33.497576122198822 ], [ -80.847011802073709, 33.497563322198822 ], [ -80.846955802073708, 33.497585122198821 ], [ -80.846961902073701, 33.497596122198821 ], [ -80.846925702073705, 33.497610122198822 ], [ -80.846921202073702, 33.497602022198819 ], [ -80.846806702073707, 33.497646422198819 ], [ -80.84677720207371, 33.497593522198819 ], [ -80.846788302073705, 33.497589222198819 ], [ -80.846779702073704, 33.497573722198823 ], [ -80.846734802073712, 33.49759112219882 ], [ -80.846610802073712, 33.497368722198821 ], [ -80.846659802073702, 33.49734972219882 ], [ -80.846650302073712, 33.49733272219882 ], [ -80.846607102073705, 33.497349522198824 ], [ -80.846581902073709, 33.497304422198823 ], [ -80.846656302073711, 33.497275622198821 ], [ -80.846665602073713, 33.497292222198823 ], [ -80.846775802073708, 33.497249522198821 ], [ -80.8467709020737, 33.497240622198824 ], [ -80.8468195020737, 33.497221822198824 ], [ -80.846824702073704, 33.497231122198819 ], [ -80.846942802073713, 33.497185322198824 ], [ -80.846932802073709, 33.497167422198821 ], [ -80.847008002073707, 33.497138322198822 ], [ -80.847035502073709, 33.497187722198824 ], [ -80.846991902073711, 33.497204622198822 ], [ -80.84699910207371, 33.497217422198823 ], [ -80.847045202073701, 33.497199522198819 ], [ -80.847170102073704, 33.497423422198821 ], [ -80.847120502073707, 33.497442622198825 ], [ -80.847131002073709, 33.497461322198824 ], [ -80.847138802073701, 33.497458322198824 ], [ -80.847165202073711, 33.497505722198824 ] ], [ [ -80.847043202073706, 33.497470022198826 ], [ -80.846921202073702, 33.497254522198823 ], [ -80.846846102073712, 33.49728412219882 ], [ -80.846853502073699, 33.497297022198822 ], [ -80.846813902073706, 33.49731262219882 ], [ -80.846805902073712, 33.497298522198825 ], [ -80.846732902073711, 33.497327322198821 ], [ -80.8468554020737, 33.497543522198825 ], [ -80.846913602073712, 33.49752062219882 ], [ -80.846907302073703, 33.497509522198825 ], [ -80.846973102073704, 33.497483622198821 ], [ -80.846979602073702, 33.497495022198819 ], [ -80.847043202073706, 33.497470022198826 ] ] ] } },
{ "type": "Feature", "properties": { "fid": 37.0, "name": "Felton Laboratory", "source": "SC_2023_RGB WMTS", "note": null }, "geometry": { "type": "Polygon", "coordinates": [ [ [ -80.848302832935929, 33.498675150128413 ], [ -80.848223132935928, 33.498713550128407 ], [ -80.848269632935924, 33.498780750128411 ], [ -80.847926132935925, 33.49894605012841 ], [ -80.847899232935916, 33.49890715012841 ], [ -80.847920632935924, 33.498896850128411 ], [ -80.847517832935921, 33.498314750128408 ], [ -80.847609332935917, 33.498270650128411 ], [ -80.847490432935928, 33.498098850128407 ], [ -80.847407432935924, 33.498138850128413 ], [ -80.847258532935925, 33.497923550128412 ], [ -80.847607532935925, 33.497755650128411 ], [ -80.847623832935923, 33.49777925012841 ], [ -80.847679332935925, 33.497752650128412 ], [ -80.847765032935925, 33.497876350128408 ], [ -80.847785432935922, 33.497866550128407 ], [ -80.848191532935928, 33.498453350128408 ], [ -80.848156632935925, 33.498470150128412 ], [ -80.848242432935919, 33.498594250128413 ], [ -80.848278132935917, 33.498577050128411 ], [ -80.848302432935924, 33.49861225012841 ], [ -80.848270132935923, 33.498627850128408 ], [ -80.848302832935929, 33.498675150128413 ] ], [ [ -80.848156432935923, 33.498646550128413 ], [ -80.848019432935928, 33.498447650128412 ], [ -80.847838032935925, 33.49853445012841 ], [ -80.847975032935921, 33.498733450128412 ], [ -80.848156432935923, 33.498646550128413 ] ], [ [ -80.847953232935922, 33.498346150128413 ], [ -80.847896032935921, 33.498267150128413 ], [ -80.847711932935923, 33.498359650128407 ], [ -80.847769032935929, 33.498438750128408 ], [ -80.847953232935922, 33.498346150128413 ] ] ] } },
{ "type": "Feature", "properties": { "fid": 39.0, "name": "Bradham Hall", "source": "SC_2023_RGB WMTS", "note": null }, "geometry": { "type": "Polygon", "coordinates": [ [ [ -80.8532481, 33.4966457 ], [ -80.8533395, 33.4968154 ], [ -80.8531905, 33.4968712 ], [ -80.8531782, 33.4968484 ], [ -80.852949, 33.4969343 ], [ -80.8529613, 33.496957 ], [ -80.8528194, 33.4970102 ], [ -80.8527281, 33.4968405 ], [ -80.8528699, 33.4967874 ], [ -80.8528834, 33.4968125 ], [ -80.8531126, 33.4967266 ], [ -80.8530991, 33.4967015 ], [ -80.8532481, 33.4966457 ] ] ] } },
{ "type": "Feature", "properties": { "fid": 40.0, "name": "Brooks Infirmary & CL. Self Developement Center", "source": "SC_2023_RGB WMTS", "note": null }, "geometry": { "type": "Polygon", "coordinates": [ [ [ -80.852987573681489, 33.497374478545524 ], [ -80.852898473681492, 33.497407878545523 ], [ -80.852855073681496, 33.497327278545526 ], [ -80.852770873681493, 33.497358778545525 ], [ -80.852814273681489, 33.497439378545522 ], [ -80.852736273681501, 33.497468578545522 ], [ -80.852692873681491, 33.497387978545525 ], [ -80.852641573681495, 33.497292678545527 ], [ -80.853025973681497, 33.497148778545522 ], [ -80.853128531514869, 33.497109284384308 ], [ -80.853225054894835, 33.497285551892659 ], [ -80.853120673681488, 33.497324678545525 ], [ -80.853052373681493, 33.497350278545525 ], [ -80.853008873681489, 33.497269678545528 ], [ -80.852944173681493, 33.497293878545527 ], [ -80.852987573681489, 33.497374478545524 ] ] ] } },
{ "type": "Feature", "properties": { "fid": 41.0, "name": "Manning Hall", "source": "SC_2023_RGB WMTS", "note": null }, "geometry": { "type": "Polygon", "coordinates": [ [ [ -80.852632, 33.4966621 ], [ -80.8525363, 33.4964844 ], [ -80.8526781, 33.4964312 ], [ -80.8526952, 33.496463 ], [ -80.8529325, 33.4963742 ], [ -80.8529153, 33.4963424 ], [ -80.8530563, 33.4962896 ], [ -80.853152, 33.4964673 ], [ -80.853011, 33.4965201 ], [ -80.8529951, 33.4964905 ], [ -80.8527579, 33.4965794 ], [ -80.8527738, 33.4966089 ], [ -80.852632, 33.4966621 ] ] ] } },
{ "type": "Feature", "properties": { "fid": 42.0, "name": "Wilkinson Hall", "source": "SC_2023_RGB WMTS", "note": null }, "geometry": { "type": "Polygon", "coordinates": [ [ [ -80.853381060522238, 33.495761118266415 ], [ -80.853385860522238, 33.495769918266419 ], [ -80.853309360522232, 33.495798518266419 ], [ -80.853304560522233, 33.495789718266415 ], [ -80.85318356052224, 33.49583511826642 ], [ -80.853131460522235, 33.495738518266414 ], [ -80.853214160522242, 33.495707618266415 ], [ -80.853163460522239, 33.495613418266416 ], [ -80.853320651298759, 33.495557779914925 ], [ -80.853371360522232, 33.495648718266416 ], [ -80.853453960522231, 33.495617718266416 ], [ -80.853505960522241, 33.495714318266415 ], [ -80.853381060522238, 33.495761118266415 ] ] ] } },
{ "type": "Feature", "properties": { "fid": 43.0, "name": "Turner Hall Wing D", "source": "SC_2023_RGB WMTS", "note": null }, "geometry": { "type": "Polygon", "coordinates": [ [ [ -80.849660032935944, 33.498171034767935 ], [ -80.848880832935933, 33.49854723476794 ], [ -80.848801932935942, 33.498433534767941 ], [ -80.84958103293593, 33.498057434767937 ], [ -80.849660032935944, 33.498171034767935 ] ] ] } },
{ "type": "Feature", "properties": { "fid": 44.0, "name": "Oliver C. Dawson Stadium", "source": "SC_2023_RGB WMTS", "note": null }, "geometry": { "type": "MultiPolygon", "coordinates": [ [ [ [ -80.8455432, 33.4990213 ], [ -80.845313, 33.4989636 ], [ -80.8453319, 33.4989142 ], [ -80.8447306, 33.4979892 ], [ -80.8445845, 33.4979493 ], [ -80.844033, 33.4981951 ], [ -80.843903, 33.4979976 ], [ -80.8445125, 33.497712 ], [ -80.8449025, 33.497801 ], [ -80.844933, 33.4978466 ], [ -80.8450003, 33.4978161 ], [ -80.8450227, 33.4978503 ], [ -80.8456106, 33.498752 ], [ -80.8456459, 33.4988062 ], [ -80.8455769, 33.4988375 ], [ -80.8455933, 33.4988634 ], [ -80.8455432, 33.4990213 ] ] ], [ [ [ -80.8444026, 33.4991909 ], [ -80.8443709, 33.4992052 ], [ -80.843918, 33.4985062 ], [ -80.8440869, 33.4984301 ], [ -80.8446654, 33.4993229 ], [ -80.8445282, 33.4993847 ], [ -80.8444026, 33.4991909 ] ] ], [ [ [ -80.8455044, 33.499013 ], [ -80.8455432, 33.4990213 ], [ -80.8455018, 33.4991598 ], [ -80.8454631, 33.4991514 ], [ -80.8455044, 33.499013 ] ] ], [ [ [ -80.8439607, 33.4982985 ], [ -80.8440555, 33.4984385 ], [ -80.8439163, 33.4985012 ], [ -80.8438261, 33.4983579 ], [ -80.8439607, 33.4982985 ] ] ], [ [ [ -80.8455075, 33.4983596 ], [ -80.8453906, 33.4984128 ], [ -80.8452269, 33.4981629 ], [ -80.8453437, 33.4981097 ], [ -80.8455075, 33.4983596 ] ] ], [ [ [ -80.8438053, 33.4980433 ], [ -80.8439335, 33.4982389 ], [ -80.8439673, 33.498291 ], [ -80.8438192, 33.4983571 ], [ -80.8436587, 33.4981094 ], [ -80.8438053, 33.4980433 ] ] ], [ [ [ -80.8449317, 33.4993351 ], [ -80.8449125, 33.4993037 ], [ -80.8448435, 33.499333 ], [ -80.8448231, 33.4992997 ], [ -80.8447912, 33.4993133 ], [ -80.8447528, 33.4992505 ], [ -80.8452467, 33.4990406 ], [ -80.845275, 33.4990869 ], [ -80.8452391, 33.4991021 ], [ -80.8452648, 33.4991442 ], [ -80.8451908, 33.4991756 ], [ -80.8452148, 33.4992148 ], [ -80.8449317, 33.4993351 ] ] ] ] } },
{ "type": "Feature", "properties": { "fid": 46.0, "name": "Nix Hall", "source": "SC_2023_RGB WMTS", "note": null }, "geometry": { "type": "Polygon", "coordinates": [ [ [ -80.847467153942617, 33.500002370692123 ], [ -80.847437253942616, 33.500014370692121 ], [ -80.847442053942615, 33.500022570692124 ], [ -80.847346253942618, 33.500061170692128 ], [ -80.847340353942613, 33.500050970692122 ], [ -80.847067953942613, 33.500160470692123 ], [ -80.847003453942619, 33.500048970692127 ], [ -80.847133753942614, 33.499996570692126 ], [ -80.847150153942607, 33.500024870692123 ], [ -80.847393453942615, 33.499926970692123 ], [ -80.847415853942607, 33.499965670692127 ], [ -80.847440253942608, 33.499955870692126 ], [ -80.847467153942617, 33.500002370692123 ] ] ] } },
{ "type": "Feature", "properties": { "fid": 47.0, "name": "Planetarium", "source": "SC_2023_RGB WMTS", "note": null }, "geometry": { "type": "Polygon", "coordinates": [ [ [ -80.848919260522237, 33.499955809730899 ], [ -80.848815460522232, 33.499995609730902 ], [ -80.848810960522229, 33.4999875097309 ], [ -80.848772460522241, 33.500002209730901 ], [ -80.848777360522234, 33.500011009730905 ], [ -80.84866996052223, 33.500052209730903 ], [ -80.848596360522237, 33.499918609730905 ], [ -80.848704160522232, 33.499877309730898 ], [ -80.84870856052224, 33.4998853097309 ], [ -80.848743160522233, 33.4998720097309 ], [ -80.848739560522233, 33.499865609730904 ], [ -80.848846860522229, 33.499824409730898 ], [ -80.848919260522237, 33.499955809730899 ] ] ] } },
{ "type": "Feature", "properties": { "fid": 48.0, "name": "Planetarium", "source": "SC_2023_RGB WMTS", "note": null }, "geometry": { "type": "Polygon", "coordinates": [ [ [ -80.84844817368149, 33.4999574097654 ], [ -80.848399273681494, 33.499871409765397 ], [ -80.848408873681493, 33.499867509765402 ], [ -80.848390673681493, 33.499835609765398 ], [ -80.848380173681491, 33.499839809765398 ], [ -80.848329573681497, 33.499750809765402 ], [ -80.84848887368149, 33.499687709765396 ], [ -80.848539673681501, 33.499777109765397 ], [ -80.848530173681496, 33.499780909765398 ], [ -80.848546473681495, 33.499809509765399 ], [ -80.848554173681492, 33.499806509765399 ], [ -80.848604773681501, 33.499895409765401 ], [ -80.84844817368149, 33.4999574097654 ] ] ] } },
{ "type": "Feature", "properties": { "fid": 49.0, "name": "Crawford Hall Engineering Building", "source": "SC_2023_RGB WMTS", "note": null }, "geometry": { "type": "Polygon", "coordinates": [ [ [ -80.851893660522236, 33.496160218128409 ], [ -80.85177536052224, 33.496217518128411 ], [ -80.851760460522229, 33.496196218128411 ], [ -80.851632260522237, 33.496258418128406 ], [ -80.85150336052223, 33.496320918128411 ], [ -80.851520960522237, 33.496346118128407 ], [ -80.851398060522229, 33.496405818128409 ], [ -80.851229960522232, 33.496164718128405 ], [ -80.851352460522236, 33.496105318128407 ], [ -80.851374060522232, 33.496136218128406 ], [ -80.851631960522241, 33.496011218128409 ], [ -80.85161036052223, 33.495980218128409 ], [ -80.851728260522236, 33.495923018128408 ], [ -80.851893660522236, 33.496160218128409 ] ] ] } },
{ "type": "Feature", "properties": { "fid": 50.0, "name": "Belcher Hall", "source": "SC_2023_RGB WMTS", "note": null }, "geometry": { "type": "Polygon", "coordinates": [ [ [ -80.854394453942604, 33.494186504895389 ], [ -80.854134953942605, 33.49425650489539 ], [ -80.854092553942593, 33.494147404895386 ], [ -80.854128053942603, 33.494137804895388 ], [ -80.854081053942593, 33.494016604895386 ], [ -80.853873953942596, 33.494072504895392 ], [ -80.853653353942605, 33.494132004895391 ], [ -80.853623053942599, 33.494053804895387 ], [ -80.853665053942592, 33.49404250489539 ], [ -80.853611453942605, 33.493904304895388 ], [ -80.854024953942599, 33.493792704895391 ], [ -80.854033853942596, 33.493815604895389 ], [ -80.854089153942596, 33.493800704895392 ], [ -80.854103653942602, 33.49383820489539 ], [ -80.854244653942601, 33.493800204895386 ], [ -80.854394453942604, 33.494186504895389 ] ] ] } },
{ "type": "Feature", "properties": { "fid": 51.0, "name": "Athletics Dept. 1", "source": "SC_2023_RGB WMTS", "note": null }, "geometry": { "type": "Polygon", "coordinates": [ [ [ -80.847954280261135, 33.49982546341743 ], [ -80.847704080261138, 33.499921763417433 ], [ -80.847706880261129, 33.499926863417429 ], [ -80.847600780261132, 33.499967663417429 ], [ -80.847595180261138, 33.499957463417431 ], [ -80.847569180261132, 33.499967463417434 ], [ -80.847543280261135, 33.499920563417433 ], [ -80.84757448026113, 33.499908563417435 ], [ -80.847556480261133, 33.499876163417433 ], [ -80.847839580261137, 33.499767263417432 ], [ -80.847824580261133, 33.499740063417434 ], [ -80.847959780261135, 33.49968806341743 ], [ -80.848000280261132, 33.499761163417432 ], [ -80.847932980261135, 33.499786963417435 ], [ -80.847954280261135, 33.49982546341743 ] ] ] } },
{ "type": "Feature", "properties": { "fid": 52.0, "name": "H - D Theatre", "source": "SC_2023_RGB WMTS", "note": null }, "geometry": { "type": "Polygon", "coordinates": [ [ [ -80.850136760100284, 33.49818429634427 ], [ -80.850121160100286, 33.498191996344275 ], [ -80.850134560100287, 33.498210596344272 ], [ -80.849887060100286, 33.498333296344271 ], [ -80.849932360100283, 33.498396896344275 ], [ -80.849790960100279, 33.498466896344276 ], [ -80.849764160100278, 33.49842929634427 ], [ -80.849788960100284, 33.498416996344275 ], [ -80.849772560100277, 33.498393996344269 ], [ -80.849680160100277, 33.498439796344272 ], [ -80.849577160100282, 33.498295196344273 ], [ -80.849688960100281, 33.498239796344272 ], [ -80.849676260100281, 33.498221896344276 ], [ -80.849768260100277, 33.498176296344276 ], [ -80.849784460100281, 33.498198996344271 ], [ -80.850036760100281, 33.498073996344274 ], [ -80.850054260100279, 33.498098696344272 ], [ -80.850070160100287, 33.498090896344273 ], [ -80.850133160100285, 33.498179196344275 ], [ -80.850136760100284, 33.49818429634427 ] ] ] } },
{ "type": "Feature", "properties": { "fid": 63.0, "name": "Hugine Suites", "source": "SC_2023_RGB WMTS", "note": null }, "geometry": { "type": "MultiPolygon", "coordinates": [ [ [ [ -80.849622053942596, 33.500536063244041 ], [ -80.849601053942592, 33.500498363244041 ], [ -80.849590453942596, 33.500502563244041 ], [ -80.849553153942594, 33.500435563244039 ], [ -80.849568753942592, 33.500429463244039 ], [ -80.849547653942594, 33.500391563244037 ], [ -80.849681453942594, 33.500339763244035 ], [ -80.849686353942602, 33.500348563244039 ], [ -80.8497093539426, 33.500339663244041 ], [ -80.849705153942594, 33.500331963244037 ], [ -80.849827253942593, 33.500284763244039 ], [ -80.849845653942594, 33.500317763244041 ], [ -80.849861753942605, 33.50031156324404 ], [ -80.849898953942599, 33.500378263244038 ], [ -80.849884153942597, 33.50038396324404 ], [ -80.849906853942599, 33.50042466324404 ], [ -80.849781153942601, 33.500473263244039 ], [ -80.849776353942602, 33.500464563244037 ], [ -80.849747053942593, 33.500475863244041 ], [ -80.8497524539426, 33.500485563244041 ], [ -80.849622053942596, 33.500536063244041 ] ] ], [ [ [ -80.849410153942614, 33.500877163057581 ], [ -80.849454853942618, 33.500858963057574 ], [ -80.849449753942608, 33.500850263057579 ], [ -80.849529453942608, 33.500817863057577 ], [ -80.849536953942618, 33.500830763057579 ], [ -80.849581953942618, 33.500812363057577 ], [ -80.849646653942614, 33.500923063057577 ], [ -80.849636253942606, 33.500927263057577 ], [ -80.849647253942607, 33.500946263057578 ], [ -80.849656353942606, 33.500942663057579 ], [ -80.849715353942614, 33.501043563057578 ], [ -80.849676053942616, 33.50105946305758 ], [ -80.849683853942608, 33.50107286305758 ], [ -80.849604553942612, 33.50110506305758 ], [ -80.849597453942607, 33.501092863057579 ], [ -80.84954905394261, 33.501112563057575 ], [ -80.849488453942612, 33.501008663057576 ], [ -80.849498753942612, 33.501004463057576 ], [ -80.849484553942617, 33.500980263057578 ], [ -80.849473053942617, 33.500984963057576 ], [ -80.849410153942614, 33.500877163057581 ] ] ], [ [ [ -80.849819460522241, 33.500838916828286 ], [ -80.84978836052224, 33.500806416828283 ], [ -80.849779160522232, 33.500812516828283 ], [ -80.849723860522232, 33.500754916828285 ], [ -80.849737160522238, 33.500745916828286 ], [ -80.849705860522235, 33.500713316828282 ], [ -80.849821160522239, 33.500636416828286 ], [ -80.849828360522238, 33.500643916828288 ], [ -80.849848160522242, 33.500630716828283 ], [ -80.849841860522233, 33.500624216828285 ], [ -80.849946960522232, 33.500554116828283 ], [ -80.849974260522231, 33.500582516828288 ], [ -80.84998816052223, 33.500573216828286 ], [ -80.850043260522241, 33.500630616828282 ], [ -80.850030560522242, 33.500639116828289 ], [ -80.850064260522231, 33.500674116828286 ], [ -80.849956060522231, 33.500746316828284 ], [ -80.849948860522233, 33.500738816828289 ], [ -80.849923660522236, 33.500755616828286 ], [ -80.84993166052223, 33.500764016828285 ], [ -80.849819460522241, 33.500838916828286 ] ] ], [ [ [ -80.84955696052225, 33.501358516677719 ], [ -80.849429060522255, 33.501413216677719 ], [ -80.849406360522252, 33.501376316677721 ], [ -80.84939586052225, 33.501380716677723 ], [ -80.849355460522247, 33.501315016677722 ], [ -80.849370660522254, 33.501308516677724 ], [ -80.849347760522249, 33.501271316677723 ], [ -80.84947916052225, 33.50121511667772 ], [ -80.849484460522248, 33.501223716677721 ], [ -80.849506960522248, 33.501214016677721 ], [ -80.849502360522251, 33.50120661667772 ], [ -80.84962206052225, 33.501155316677725 ], [ -80.849642060522243, 33.50118771667772 ], [ -80.849657960522251, 33.501180916677718 ], [ -80.849698160522252, 33.501246316677722 ], [ -80.849683760522254, 33.501252516677724 ], [ -80.849708260522249, 33.501292416677721 ], [ -80.849585060522244, 33.50134521667772 ], [ -80.849579860522255, 33.50133671667772 ], [ -80.849551060522245, 33.501349016677722 ], [ -80.84955696052225, 33.501358516677719 ] ] ], [ [ [ -80.849118953942607, 33.501130709334106 ], [ -80.849056053942618, 33.501022909334104 ], [ -80.849100853942616, 33.501004709334104 ], [ -80.849095653942612, 33.500996009334109 ], [ -80.849175353942613, 33.500963609334107 ], [ -80.849182853942608, 33.500976509334109 ], [ -80.849227953942616, 33.500958109334107 ], [ -80.849292553942618, 33.501068809334107 ], [ -80.84928215394261, 33.501073009334107 ], [ -80.849293253942619, 33.501092009334108 ], [ -80.849302253942611, 33.501088409334109 ], [ -80.849361253942618, 33.501189309334109 ], [ -80.849321953942606, 33.50120520933411 ], [ -80.849329753942612, 33.501218609334103 ], [ -80.849250453942616, 33.50125080933411 ], [ -80.849243353942612, 33.501238609334109 ], [ -80.849194953942614, 33.501258309334105 ], [ -80.849134353942617, 33.501154409334106 ], [ -80.849144653942616, 33.501150209334106 ], [ -80.849130553942615, 33.501126009334108 ], [ -80.849118953942607, 33.501130709334106 ] ] ], [ [ [ -80.848728693420355, 33.501021716756135 ], [ -80.848734393420344, 33.501031316756134 ], [ -80.848605193420354, 33.501083916756137 ], [ -80.848583293420347, 33.501046616756135 ], [ -80.848572793420345, 33.501050916756135 ], [ -80.848533893420353, 33.500984516756134 ], [ -80.848549293420348, 33.500978216756138 ], [ -80.848527293420346, 33.500940716756133 ], [ -80.848659993420355, 33.500886716756135 ], [ -80.848665093420351, 33.500895316756136 ], [ -80.848687793420353, 33.500886116756135 ], [ -80.848683393420345, 33.500878516756138 ], [ -80.848804393420352, 33.500829316756139 ], [ -80.848823493420355, 33.500862016756138 ], [ -80.848839593420351, 33.50085551675614 ], [ -80.848878193420347, 33.500921616756138 ], [ -80.848863593420347, 33.500927516756136 ], [ -80.848887293420347, 33.500967816756138 ], [ -80.848762793420349, 33.50101851675614 ], [ -80.848757793420347, 33.501009916756139 ], [ -80.848728693420355, 33.501021716756135 ] ] ], [ [ [ -80.84887128026115, 33.501269609281394 ], [ -80.848876980261153, 33.501279209281392 ], [ -80.848747780261149, 33.501331809281389 ], [ -80.848725880261142, 33.501294509281394 ], [ -80.84871538026114, 33.501298809281394 ], [ -80.848676480261148, 33.501232409281393 ], [ -80.848691880261143, 33.50122610928139 ], [ -80.848669880261141, 33.501188609281392 ], [ -80.84880258026115, 33.501134509281393 ], [ -80.848807680261146, 33.501143209281388 ], [ -80.848830380261148, 33.501134009281394 ], [ -80.84882598026114, 33.50112640928139 ], [ -80.848946980261147, 33.501077209281391 ], [ -80.84896608026115, 33.501109909281389 ], [ -80.848982180261146, 33.501103409281392 ], [ -80.849020780261142, 33.501169409281388 ], [ -80.849006180261142, 33.501175409281394 ], [ -80.849029880261142, 33.501215709281389 ], [ -80.848905380261144, 33.501266409281392 ], [ -80.848900380261142, 33.501257809281391 ], [ -80.84887128026115, 33.501269609281394 ] ] ], [ [ [ -80.848664660522232, 33.500179455866714 ], [ -80.848707260522232, 33.500161755866714 ], [ -80.848769760522231, 33.500265955866716 ], [ -80.848758860522238, 33.500270555866713 ], [ -80.848772060522236, 33.500292555866714 ], [ -80.848780960522234, 33.500288855866714 ], [ -80.848927160522237, 33.500532855866716 ], [ -80.848915260522233, 33.500537855866718 ], [ -80.848930860522231, 33.500563855866716 ], [ -80.84893836052224, 33.500560755866715 ], [ -80.849000060522229, 33.500663855866712 ], [ -80.848954860522241, 33.500682655866711 ], [ -80.848962960522229, 33.500696355866715 ], [ -80.848881860522241, 33.500730155866712 ], [ -80.848871860522237, 33.500713455866716 ], [ -80.848835460522238, 33.500728655866716 ], [ -80.848773160522242, 33.500624555866715 ], [ -80.848796760522234, 33.500614655866713 ], [ -80.848622760522233, 33.500324355866717 ], [ -80.848600560522229, 33.500333655866712 ], [ -80.848538660522237, 33.500230355866712 ], [ -80.848582060522233, 33.500212255866714 ], [ -80.848574460522229, 33.500199655866716 ], [ -80.848656360522241, 33.500165555866715 ], [ -80.848664660522232, 33.500179455866714 ] ] ], [ [ [ -80.849335353942593, 33.500546255894946 ], [ -80.849327253942604, 33.500532355894947 ], [ -80.849284453942602, 33.500549655894943 ], [ -80.849223453942599, 33.500444755894947 ], [ -80.8492344539426, 33.500440355894945 ], [ -80.849221553942598, 33.500418155894941 ], [ -80.849212553942593, 33.500421755894948 ], [ -80.849069753942601, 33.500176355894943 ], [ -80.849081653942605, 33.500171555894944 ], [ -80.849066453942598, 33.500145355894944 ], [ -80.849058953942603, 33.500148455894944 ], [ -80.848998653942601, 33.500044755894947 ], [ -80.8490441539426, 33.500026355894946 ], [ -80.849036153942592, 33.500012555894948 ], [ -80.849117753942593, 33.499979555894946 ], [ -80.849127553942594, 33.499996355894943 ], [ -80.849164153942596, 33.499981555894948 ], [ -80.849225053942604, 33.500086255894942 ], [ -80.849201353942604, 33.500095855894948 ], [ -80.849371153942599, 33.500387855894942 ], [ -80.849393553942605, 33.500378855894944 ], [ -80.8494539539426, 33.500482655894942 ], [ -80.849410353942602, 33.500500355894943 ], [ -80.849417753942603, 33.500512955894948 ], [ -80.849335353942593, 33.500546255894946 ] ] ], [ [ [ -80.848591547362986, 33.501481909173094 ], [ -80.848568947362992, 33.501499109173096 ], [ -80.848574947362991, 33.501504609173097 ], [ -80.84832984736299, 33.501690809173098 ], [ -80.848323547362995, 33.501685009173094 ], [ -80.848303647362997, 33.501700009173099 ], [ -80.848322647362991, 33.501717409173096 ], [ -80.848215447362989, 33.501798809173096 ], [ -80.848182847362992, 33.501768909173094 ], [ -80.848172947362997, 33.501776409173097 ], [ -80.848112847362984, 33.501721409173101 ], [ -80.848125047362984, 33.501712109173098 ], [ -80.848090147362996, 33.501680109173094 ], [ -80.84819124736299, 33.501603309173099 ], [ -80.848202247362991, 33.501613509173097 ], [ -80.848232547362997, 33.501590409173097 ], [ -80.848225347362984, 33.501583809173098 ], [ -80.848460847362986, 33.501405009173098 ], [ -80.848465947362996, 33.501409709173096 ], [ -80.848494647362983, 33.501387909173097 ], [ -80.848476547362992, 33.501371309173095 ], [ -80.848577547362993, 33.501294609173094 ], [ -80.848607647362996, 33.501322209173097 ], [ -80.848619047362988, 33.501313609173096 ], [ -80.848681047362987, 33.501370309173097 ], [ -80.848667647362987, 33.501380509173096 ], [ -80.848700547362995, 33.501410709173101 ], [ -80.848598447362988, 33.501488209173097 ], [ -80.848591547362986, 33.501481909173094 ] ] ], [ [ [ -80.848380953942623, 33.501176055585461 ], [ -80.84837645394262, 33.501168355585463 ], [ -80.848348953942633, 33.501179555585459 ], [ -80.848352953942623, 33.501186255585459 ], [ -80.84805505394263, 33.501307855585459 ], [ -80.848050953942632, 33.501300855585463 ], [ -80.848026953942622, 33.501310655585463 ], [ -80.848039353942625, 33.501331755585461 ], [ -80.847909053942629, 33.501384955585458 ], [ -80.847887753942629, 33.50134865558546 ], [ -80.847875753942631, 33.50135355558546 ], [ -80.847836453942634, 33.50128665558546 ], [ -80.84785135394263, 33.50128055558546 ], [ -80.847828553942634, 33.501241755585461 ], [ -80.847951353942634, 33.501191555585457 ], [ -80.847958553942632, 33.501203855585459 ], [ -80.847995353942622, 33.501188855585461 ], [ -80.847990653942631, 33.501180755585459 ], [ -80.848276653942634, 33.501063955585458 ], [ -80.848280053942631, 33.501069755585462 ], [ -80.848314853942625, 33.501055555585459 ], [ -80.84830305394263, 33.501035355585458 ], [ -80.848425753942621, 33.500985255585462 ], [ -80.848445453942631, 33.501018755585463 ], [ -80.848459253942622, 33.50101305558546 ], [ -80.848499753942633, 33.501082055585464 ], [ -80.84848345394262, 33.501088755585464 ], [ -80.848504953942623, 33.501125355585458 ], [ -80.848380953942623, 33.501176055585461 ] ] ] ] } },
{ "type": "Feature", "properties": { "fid": 62.0, "name": "Kirkland W. Green Student Center", "source": "SC_2023_RGB WMTS", "note": null }, "geometry": { "type": "Polygon", "coordinates": [ [ [ -80.851646467101858, 33.49719993928074 ], [ -80.851582667101852, 33.497232839280741 ], [ -80.851596467101857, 33.49725033928074 ], [ -80.851525667101853, 33.497327539280739 ], [ -80.851547967101851, 33.497342039280738 ], [ -80.851441967101863, 33.497471939280736 ], [ -80.851417067101863, 33.497456339280738 ], [ -80.85137116710186, 33.49750573928074 ], [ -80.851380000929638, 33.497511767701042 ], [ -80.851354718070667, 33.497539216190432 ], [ -80.851345367101857, 33.497532439280739 ], [ -80.851294167101855, 33.497591239280737 ], [ -80.851098967101862, 33.497309739280738 ], [ -80.851184767101856, 33.497268439280738 ], [ -80.851019467101864, 33.497030039280737 ], [ -80.851169367101861, 33.496957839280739 ], [ -80.851187767101862, 33.496984339280736 ], [ -80.851512767101852, 33.496827539280737 ], [ -80.851617167101864, 33.496978139280742 ], [ -80.851738767101864, 33.496919439280738 ], [ -80.851715767101865, 33.49688613928074 ], [ -80.851751167101853, 33.496869039280739 ], [ -80.851774367101854, 33.49690253928074 ], [ -80.851789867101857, 33.496895139280738 ], [ -80.851858667101851, 33.496994239280738 ], [ -80.851592667101855, 33.497122439280737 ], [ -80.851646467101858, 33.49719993928074 ] ] ] } },
{ "type": "Feature", "properties": { "fid": 65.0, "name": "Miller F. Whittaker Library", "source": "SC_2023_RGB WMTS", "note": null }, "geometry": { "type": "Polygon", "coordinates": [ [ [ -80.848893324141045, 33.49786468812119 ], [ -80.848866324141042, 33.497878788121191 ], [ -80.848879024141041, 33.497895588121189 ], [ -80.848912524141042, 33.49787808812119 ], [ -80.848940524141042, 33.497915288121192 ], [ -80.848911324141042, 33.497930588121193 ], [ -80.848949124141043, 33.49798078812119 ], [ -80.848874824141035, 33.498019588121188 ], [ -80.848907424141032, 33.498062988121191 ], [ -80.848850724141045, 33.498092488121195 ], [ -80.848816924141033, 33.498047388121194 ], [ -80.848759024141046, 33.498077688121192 ], [ -80.848765924141034, 33.498086888121193 ], [ -80.848633124141045, 33.498156188121193 ], [ -80.848621024141039, 33.49814008812119 ], [ -80.848603824141037, 33.498149088121188 ], [ -80.848517724141033, 33.498034488121192 ], [ -80.848536324141037, 33.498024688121191 ], [ -80.848504224141038, 33.497981888121188 ], [ -80.848481124141045, 33.497993888121194 ], [ -80.848435224141042, 33.49793278812119 ], [ -80.848467624141037, 33.497915888121192 ], [ -80.84841682414104, 33.49784828812119 ], [ -80.848611824141045, 33.497746388121193 ], [ -80.848629024141033, 33.497769288121191 ], [ -80.848649424141044, 33.497758688121195 ], [ -80.848635324141043, 33.497739888121188 ], [ -80.848682324141038, 33.497715288121192 ], [ -80.848695524141036, 33.497732888121192 ], [ -80.848758624141041, 33.497699988121191 ], [ -80.84880652414104, 33.49776378812119 ], [ -80.848778624141033, 33.497778288121189 ], [ -80.848802624141044, 33.497810288121194 ], [ -80.848779524141037, 33.497822288121192 ], [ -80.848790124141033, 33.497836288121192 ], [ -80.848848924141038, 33.497805588121189 ], [ -80.848893324141045, 33.49786468812119 ] ] ] } },
{ "type": "Feature", "properties": { "fid": 82.0, "name": "Turner Hall Wing A", "source": "SC_2023_RGB WMTS", "note": null }, "geometry": { "type": "Polygon", "coordinates": [ [ [ -80.849112784378832, 33.498797115423876 ], [ -80.848965784378834, 33.498868415423878 ], [ -80.848811784378839, 33.498647915423874 ], [ -80.848958784378837, 33.498576515423878 ], [ -80.849112784378832, 33.498797115423876 ] ] ] } },
{ "type": "Feature", "properties": { "fid": 84.0, "name": "Planetarium", "source": "SC_2023_RGB WMTS", "note": null }, "geometry": { "type": "Polygon", "coordinates": [ [ [ -80.849104686840761, 33.49976927074858 ], [ -80.849030486840761, 33.499885370748579 ], [ -80.84883988684075, 33.499800770748578 ], [ -80.84891408684075, 33.499684570748578 ], [ -80.849104686840761, 33.49976927074858 ] ] ] } },
{ "type": "Feature", "properties": { "fid": 91.0, "name": "Felton Pre School", "source": "SC_2023_RGB WMTS", "note": null }, "geometry": { "type": "Polygon", "coordinates": [ [ [ -80.847618219556765, 33.49905016378176 ], [ -80.847525619556762, 33.499094663781761 ], [ -80.847426819556773, 33.499071663781763 ], [ -80.847368919556772, 33.498990763781762 ], [ -80.847397419556771, 33.498907563781763 ], [ -80.847495419556765, 33.498861563781766 ], [ -80.847586219556774, 33.498880863781764 ], [ -80.847645019556765, 33.498955063781764 ], [ -80.847618219556765, 33.49905016378176 ] ] ] } },
{ "type": "Feature", "properties": { "fid": 92.0, "name": "Dukes Gymnasium", "source": "SC_2023_RGB WMTS", "note": null }, "geometry": { "type": "Polygon", "coordinates": [ [ [ -80.850579, 33.4973864 ], [ -80.8505268, 33.4974129 ], [ -80.8505382, 33.4974285 ], [ -80.8503295, 33.4975345 ], [ -80.8501222, 33.4972507 ], [ -80.8503367, 33.4971418 ], [ -80.8503457, 33.4971542 ], [ -80.8503921, 33.4971306 ], [ -80.850438, 33.4971934 ], [ -80.8505337, 33.4973244 ], [ -80.850579, 33.4973864 ] ] ] } },
{ "type": "Feature", "properties": { "fid": 90.0, "name": "Fine Arts Center", "source": "SC_2023_RGB WMTS", "note": null }, "geometry": { "type": "MultiPolygon", "coordinates": [ [ [ [ -80.847956391360484, 33.500473951819536 ], [ -80.847780653942607, 33.500197294898079 ], [ -80.848083453942607, 33.500048794898085 ], [ -80.848316753942612, 33.500408194898078 ], [ -80.848118153942607, 33.500500894898082 ], [ -80.84811682759775, 33.500501514964299 ], [ -80.848094029931374, 33.500559378920748 ], [ -80.848153853942634, 33.50057350212267 ], [ -80.847557553942622, 33.500843102122673 ], [ -80.84729745394263, 33.500458502122676 ], [ -80.847336353942623, 33.500468602122673 ], [ -80.847520153942625, 33.50051640212267 ], [ -80.847619853942632, 33.500667902122672 ], [ -80.847936553942631, 33.500522202122674 ], [ -80.847937532411109, 33.500522433118682 ], [ -80.847956391360484, 33.500473951819536 ] ] ], [ [ [ -80.847326473681491, 33.500465855868988 ], [ -80.847357073681493, 33.500387455868989 ], [ -80.847312573681492, 33.500369555868986 ], [ -80.847271573681496, 33.500345855868986 ], [ -80.84724487368149, 33.500305755868986 ], [ -80.847415873681499, 33.500118555868987 ], [ -80.847633173681501, 33.500170555868991 ], [ -80.847510273681493, 33.500513655868986 ], [ -80.847326473681491, 33.500465855868988 ] ] ] ] } },
{ "type": "Feature", "properties": { "fid": 95.0, "name": "Hodge Hall", "source": "SC_2023_RGB WMTS", "note": null }, "geometry": { "type": "Polygon", "coordinates": [ [ [ -80.85231391315925, 33.497753832036544 ], [ -80.852294413159242, 33.497776432036545 ], [ -80.852321613159248, 33.497792832036545 ], [ -80.852308913159249, 33.497807532036539 ], [ -80.852324913159251, 33.497817132036545 ], [ -80.852309513159241, 33.49783493203654 ], [ -80.852327913159243, 33.49784593203654 ], [ -80.85230881315924, 33.497868032036543 ], [ -80.85233131315924, 33.497881632036545 ], [ -80.852276313159251, 33.497945132036541 ], [ -80.852194513159247, 33.497895932036542 ], [ -80.852176713159238, 33.49791643203654 ], [ -80.851872113159246, 33.497732932036541 ], [ -80.851783913159252, 33.497834732036544 ], [ -80.851676813159244, 33.497770232036544 ], [ -80.851651213159244, 33.497799832036542 ], [ -80.851671513159246, 33.497812032036542 ], [ -80.851622213159246, 33.497868832036545 ], [ -80.851421813159249, 33.497748132036541 ], [ -80.851470513159242, 33.497691932036545 ], [ -80.851486213159248, 33.497701332036542 ], [ -80.851660213159249, 33.497500432036546 ], [ -80.851644913159248, 33.497491232036545 ], [ -80.85169531315924, 33.49743303203654 ], [ -80.851895613159243, 33.497553632036542 ], [ -80.85192511315924, 33.497519632036543 ], [ -80.851936613159239, 33.497526532036545 ], [ -80.851986013159248, 33.497556332036545 ], [ -80.85231391315925, 33.497753832036544 ] ] ] } },
{ "type": "Feature", "properties": { "fid": 96.0, "name": "Davis Hall", "source": "SC_2023_RGB WMTS", "note": null }, "geometry": { "type": "Polygon", "coordinates": [ [ [ -80.8521187, 33.4971654 ], [ -80.8522771, 33.496983 ], [ -80.8524802, 33.4971057 ], [ -80.852289, 33.4973258 ], [ -80.8524362, 33.4974147 ], [ -80.8523499, 33.4975139 ], [ -80.8522576, 33.4974581 ], [ -80.8521726, 33.497556 ], [ -80.8519148, 33.4974003 ], [ -80.8520176, 33.497282 ], [ -80.8518747, 33.4971956 ], [ -80.8519759, 33.4970791 ], [ -80.8521187, 33.4971654 ] ] ] } },
{ "type": "Feature", "properties": { "fid": 97.0, "name": "Earle Hall", "source": "SC_2023_RGB WMTS", "note": null }, "geometry": { "type": "Polygon", "coordinates": [ [ [ -80.8506092, 33.4966226 ], [ -80.8506403, 33.4966676 ], [ -80.850213, 33.4968731 ], [ -80.8501837, 33.4968308 ], [ -80.8501587, 33.4968428 ], [ -80.8501302, 33.4968016 ], [ -80.8501498, 33.4967922 ], [ -80.850138, 33.4967751 ], [ -80.850607, 33.4965496 ], [ -80.8506455, 33.4966052 ], [ -80.8506092, 33.4966226 ] ] ] } },
{ "type": "Feature", "properties": { "fid": 98.0, "name": "Housing Office", "source": "SC_2023_RGB WMTS", "note": null }, "geometry": { "type": "Polygon", "coordinates": [ [ [ -80.850685, 33.4980262 ], [ -80.8507367, 33.4979814 ], [ -80.8508122, 33.4980418 ], [ -80.8507566, 33.4980902 ], [ -80.850775, 33.4981049 ], [ -80.8507366, 33.4981382 ], [ -80.8507172, 33.4981228 ], [ -80.8506633, 33.4981696 ], [ -80.8505886, 33.4981098 ], [ -80.8506417, 33.4980636 ], [ -80.8506251, 33.4980504 ], [ -80.8506683, 33.4980129 ], [ -80.850685, 33.4980262 ] ] ] } },
{ "type": "Feature", "properties": { "fid": 99.0, "name": "Miller Hall", "source": "SC_2023_RGB WMTS", "note": null }, "geometry": { "type": "Polygon", "coordinates": [ [ [ -80.8511233, 33.4963502 ], [ -80.8512088, 33.496472 ], [ -80.8511064, 33.4965221 ], [ -80.8511018, 33.4965155 ], [ -80.8509579, 33.4965858 ], [ -80.8509623, 33.4965922 ], [ -80.8508567, 33.4966437 ], [ -80.8507704, 33.4965208 ], [ -80.8508663, 33.4964739 ], [ -80.850872, 33.496482 ], [ -80.8510264, 33.4964066 ], [ -80.8510217, 33.4963999 ], [ -80.8511233, 33.4963502 ] ] ] } },
{ "type": "Feature", "properties": { "fid": 100.0, "name": "Crawford Zimmerman Building", "source": "SC_2023_RGB WMTS", "note": null }, "geometry": { "type": "Polygon", "coordinates": [ [ [ -80.852747590529972, 33.494996564944685 ], [ -80.852669015347047, 33.495190414010054 ], [ -80.852709939921482, 33.495266861409462 ], [ -80.8522941462451, 33.495432042166982 ], [ -80.852081338457964, 33.495053900628939 ], [ -80.8523244, 33.4949627 ], [ -80.852207386147271, 33.494759030991133 ], [ -80.8526354, 33.4945937 ], [ -80.852837624593775, 33.494954245724799 ], [ -80.852747590529972, 33.494996564944685 ] ] ] } },
{ "type": "Feature", "properties": { "fid": 101.0, "name": "Moss Hall", "source": "SC_2023_RGB WMTS", "note": null }, "geometry": { "type": "Polygon", "coordinates": [ [ [ -80.853549712189164, 33.494562450674678 ], [ -80.853693766691222, 33.494887354012477 ], [ -80.853644657201883, 33.494905100798341 ], [ -80.853670848929525, 33.494966531952059 ], [ -80.853521883478535, 33.495012946572622 ], [ -80.8534625, 33.4948887 ], [ -80.8534934, 33.4948788 ], [ -80.853377828976477, 33.494621151788138 ], [ -80.853549712189164, 33.494562450674678 ] ] ] } },
{ "type": "Feature", "properties": { "fid": 102.0, "name": "Administration Building", "source": "SC_2023_RGB WMTS", "note": null }, "geometry": { "type": "Polygon", "coordinates": [ [ [ -80.854910067101869, 33.494932432467806 ], [ -80.854994667101877, 33.495160332467805 ], [ -80.854667867101867, 33.495244732467803 ], [ -80.854583267101873, 33.495016732467803 ], [ -80.854910067101869, 33.494932432467806 ] ] ] } },
{ "type": "Feature", "properties": { "fid": 103.0, "name": "Washington Dining Hall", "source": "SC_2023_RGB WMTS", "note": null }, "geometry": { "type": "Polygon", "coordinates": [ [ [ -80.852572266728984, 33.495645085235211 ], [ -80.852588803181149, 33.495688686024536 ], [ -80.852758202441137, 33.495648766112382 ], [ -80.852773099367639, 33.495688795641477 ], [ -80.8528451, 33.4956714 ], [ -80.852911288827784, 33.495870247443008 ], [ -80.852835987610803, 33.495887994027399 ], [ -80.852845928786039, 33.49591931015577 ], [ -80.852808158900189, 33.495927582548688 ], [ -80.852813376242949, 33.495943235778782 ], [ -80.852608446976873, 33.495987647856772 ], [ -80.852616631891763, 33.496010854896461 ], [ -80.852441474713132, 33.496051808480729 ], [ -80.852432677010356, 33.496031116375804 ], [ -80.852279845579289, 33.496064244116972 ], [ -80.852276139432362, 33.496053173599883 ], [ -80.852184468385602, 33.496073650384432 ], [ -80.852089495963014, 33.49581578574923 ], [ -80.852119289815988, 33.495807963900148 ], [ -80.852115427649863, 33.495797841506175 ], [ -80.85234550240348, 33.495744008754691 ], [ -80.852330159870633, 33.495700972147567 ], [ -80.852572266728984, 33.495645085235211 ] ] ] } },
{ "type": "Feature", "properties": { "fid": 108.0, "name": "Mays Hall 1", "source": "SC_2023_RGB WMTS", "note": null }, "geometry": { "type": "Polygon", "coordinates": [ [ [ -80.8506635, 33.4993201 ], [ -80.8506312, 33.4993315 ], [ -80.8506152, 33.4993 ], [ -80.8505996, 33.4993055 ], [ -80.8506231, 33.4993518 ], [ -80.850091, 33.4995394 ], [ -80.8500682, 33.4994945 ], [ -80.8500458, 33.4995024 ], [ -80.8500513, 33.4995132 ], [ -80.8500246, 33.4995226 ], [ -80.8499948, 33.4994636 ], [ -80.8500288, 33.4994516 ], [ -80.8500459, 33.4994854 ], [ -80.8500605, 33.4994802 ], [ -80.8500385, 33.4994367 ], [ -80.850568, 33.49925 ], [ -80.8505901, 33.4992937 ], [ -80.850608, 33.4992873 ], [ -80.8506026, 33.4992766 ], [ -80.8506356, 33.499265 ], [ -80.8506635, 33.4993201 ] ] ] } },
{ "type": "Feature", "properties": { "fid": 109.0, "name": "Mays Hall 2", "source": "SC_2023_RGB WMTS", "note": null }, "geometry": { "type": "Polygon", "coordinates": [ [ [ -80.8499088, 33.4990395 ], [ -80.8499772, 33.4991755 ], [ -80.8499919, 33.4991703 ], [ -80.8500062, 33.4991988 ], [ -80.8499902, 33.4992044 ], [ -80.8500559, 33.4993349 ], [ -80.8499381, 33.4993761 ], [ -80.8498757, 33.4992519 ], [ -80.8498852, 33.4992486 ], [ -80.8498642, 33.4992068 ], [ -80.8498535, 33.4992106 ], [ -80.8497886, 33.4990816 ], [ -80.8499088, 33.4990395 ] ] ] } },
{ "type": "Feature", "properties": { "fid": 110.0, "name": "Athletics Deprtment 2", "source": "SC_2023_RGB WMTS", "note": null }, "geometry": { "type": "Polygon", "coordinates": [ [ [ -80.850596480261117, 33.499585070786914 ], [ -80.850497980261125, 33.499799270786909 ], [ -80.850394680261118, 33.499766170786913 ], [ -80.850493180261111, 33.499552070786912 ], [ -80.850596480261117, 33.499585070786914 ] ] ] } },
{ "type": "Feature", "properties": { "fid": 111.0, "name": "Lowman Hall", "source": "SC_2023_RGB WMTS", "note": null }, "geometry": { "type": "Polygon", "coordinates": [ [ [ -80.8537755, 33.495072 ], [ -80.85383914807926, 33.495196529837642 ], [ -80.853814179953133, 33.495205899611875 ], [ -80.853910307238749, 33.495396418134689 ], [ -80.853945262615312, 33.495386007297277 ], [ -80.854006, 33.4955137 ], [ -80.8537879634207, 33.495583812994042 ], [ -80.85372679151169, 33.495460965298705 ], [ -80.853754256450415, 33.495451595552069 ], [ -80.8536594, 33.4952636 ], [ -80.8536315, 33.4952737 ], [ -80.8535658, 33.4951482 ], [ -80.8537755, 33.495072 ] ] ] } },
{ "type": "Feature", "properties": { "fid": 115.0, "name": "MLK Auditorium", "source": "SC_2023_RGB WMTS", "note": null }, "geometry": { "type": "Polygon", "coordinates": [ [ [ -80.85474939206766, 33.495758143416779 ], [ -80.85478379426587, 33.495717246448891 ], [ -80.854820392349055, 33.495689167922436 ], [ -80.85487162966551, 33.495658037371605 ], [ -80.854928722675254, 33.495631790035731 ], [ -80.854985083723363, 33.495612867532834 ], [ -80.855041444771487, 33.495602490674642 ], [ -80.855094146011268, 33.495600659464252 ], [ -80.855154166867692, 33.495605542691891 ], [ -80.855211259877464, 33.495616529953075 ], [ -80.855256641500617, 33.495631179632468 ], [ -80.855231022842361, 33.495689778325286 ], [ -80.85526249719392, 33.495696492756302 ], [ -80.855231022842361, 33.495757533014412 ], [ -80.855266888963911, 33.495766689049418 ], [ -80.85521931145577, 33.495830170865482 ], [ -80.855252249730626, 33.49583688528562 ], [ -80.855199548490859, 33.495888769423622 ], [ -80.855212223470446, 33.495933324741564 ], [ -80.855228094995738, 33.495929666310495 ], [ -80.855267620925574, 33.496053577655744 ], [ -80.855006310611628, 33.496118890460934 ], [ -80.854963856835141, 33.495991316804933 ], [ -80.854977764106749, 33.495988264801291 ], [ -80.854965320758467, 33.495949199145144 ], [ -80.854886268898795, 33.495928445508177 ], [ -80.854908959710372, 33.495906471063591 ], [ -80.854832103735674, 33.495877171795478 ], [ -80.854853330623925, 33.49585336613282 ], [ -80.854782330342545, 33.495815521219761 ], [ -80.854808680962435, 33.495795377952838 ], [ -80.85474939206766, 33.495758143416779 ] ] ] } },
{ "type": "Feature", "properties": { "fid": 116.0, "name": "Nance Hall", "source": "SC_2023_RGB WMTS", "note": null }, "geometry": { "type": "Polygon", "coordinates": [ [ [ -80.85482937804862, 33.496271265141928 ], [ -80.854457461674542, 33.496366791027313 ], [ -80.854366714079262, 33.496108746834949 ], [ -80.854738630453326, 33.496010739464218 ], [ -80.85482937804862, 33.496271265141928 ] ] ] } },
{ "type": "Feature", "properties": { "fid": 117.0, "name": "Faculty/Staff Parking", "source": "SC_2023_RGB WMTS", "note": null }, "geometry": { "type": "Polygon", "coordinates": [ [ [ -80.853917597972725, 33.496725860713497 ], [ -80.853756896821054, 33.496409922457197 ], [ -80.854228227014531, 33.496242220165527 ], [ -80.854354812837954, 33.496486286785931 ], [ -80.853917597972725, 33.496725860713497 ] ] ] } },
{ "type": "Feature", "properties": { "fid": 133.0, "name": "Clyburn Center Phase 1", "source": "SC_2023_RGB WMTS", "note": null }, "geometry": { "type": "Polygon", "coordinates": [ [ [ -80.851879838670172, 33.495458354530022 ], [ -80.851874899674399, 33.495462473304542 ], [ -80.851874899674399, 33.495462473304542 ], [ -80.851874899674399, 33.495462473304542 ], [ -80.851874899674399, 33.495462473304542 ], [ -80.851874899674399, 33.495462473304542 ], [ -80.851879838670172, 33.4954604139173 ], [ -80.851879838670172, 33.4954604139173 ], [ -80.851879838670172, 33.49546453269172 ], [ -80.851872430176485, 33.495487185947525 ], [ -80.851845265699779, 33.495509839197396 ], [ -80.851820570720946, 33.495530433055769 ], [ -80.851785997750582, 33.495538670597753 ], [ -80.851748955282289, 33.495538670597753 ], [ -80.851716851809812, 33.495532492441335 ], [ -80.851571151434698, 33.495316256689193 ], [ -80.8515834989241, 33.495287425214777 ], [ -80.851543986957964, 33.495260653122784 ], [ -80.851558803945238, 33.495237999807699 ], [ -80.851521761476988, 33.495213287093591 ], [ -80.851430390055313, 33.495073248247053 ], [ -80.851605724405033, 33.495003228738831 ], [ -80.851640297375411, 33.495060891867361 ], [ -80.851620541392364, 33.495083545228773 ], [ -80.851669931350031, 33.495118554957479 ], [ -80.851660053358501, 33.49513914890894 ], [ -80.851699565324637, 33.49515562406657 ], [ -80.851684748337348, 33.495182396191034 ], [ -80.851729199299243, 33.495205049520649 ], [ -80.851719321307684, 33.495233881022507 ], [ -80.851761302771749, 33.495254474946528 ], [ -80.851756363775976, 33.495260653122784 ], [ -80.851879838670172, 33.495458354530022 ] ] ] } },
{ "type": "Feature", "properties": { "fid": 134.0, "name": "Faculty / Staff Parking", "source": "SC_2023_RGB WMTS", "note": null }, "geometry": { "type": "Polygon", "coordinates": [ [ [ -80.851446802010813, 33.494841309427521 ], [ -80.851266484248427, 33.494921099350499 ], [ -80.851158080058397, 33.494745379594676 ], [ -80.851207604979052, 33.494724693253978 ], [ -80.851192885161737, 33.494700142460587 ], [ -80.851141710228632, 33.494720807075666 ], [ -80.851100886303385, 33.4946571785554 ], [ -80.851148725709734, 33.49463569659482 ], [ -80.851131888330741, 33.494608865511879 ], [ -80.851084415824403, 33.494630707779578 ], [ -80.85099416762769, 33.494488391578628 ], [ -80.851038327079692, 33.494466909576168 ], [ -80.85101992730803, 33.494436220991965 ], [ -80.85097473796489, 33.494457334627889 ], [ -80.850904347696826, 33.494352218453479 ], [ -80.851092600739292, 33.494270309657679 ], [ -80.851446802010813, 33.494841309427521 ] ] ] } },
{ "type": "Feature", "properties": { "fid": 135.0, "name": "Williams Hall", "source": "SC_2023_RGB WMTS", "note": null }, "geometry": { "type": "Polygon", "coordinates": [ [ [ -80.849669505528738, 33.497191141129967 ], [ -80.849503948121267, 33.497269225059178 ], [ -80.849487264284789, 33.497244247032334 ], [ -80.849453614251985, 33.497259538745411 ], [ -80.849471682319702, 33.497285488827657 ], [ -80.849338896878052, 33.497348198917152 ], [ -80.849321971824551, 33.497324114150111 ], [ -80.849287408645552, 33.49734085449461 ], [ -80.849304345564136, 33.497364582626737 ], [ -80.849141073669017, 33.49744537121834 ], [ -80.849128879087644, 33.497427857613978 ], [ -80.849093650296993, 33.497444806263424 ], [ -80.849041484587772, 33.497369667225641 ], [ -80.849076713378437, 33.497353283517008 ], [ -80.849056751051663, 33.497324114150111 ], [ -80.849223048354943, 33.497244247032334 ], [ -80.849258277145609, 33.497296222990343 ], [ -80.849287125299639, 33.497282140142538 ], [ -80.849160720494581, 33.497097358286645 ], [ -80.849176302459668, 33.497088883928335 ], [ -80.849160043017847, 33.49706402580582 ], [ -80.849260022446941, 33.497017380548776 ], [ -80.84927453658743, 33.497038037761008 ], [ -80.849293505936245, 33.497029563396886 ], [ -80.849418839133733, 33.497211479564513 ], [ -80.849451678333907, 33.497196577679439 ], [ -80.849421549040699, 33.497152159117071 ], [ -80.849589128515504, 33.497075498577736 ], [ -80.84961395243576, 33.497110917258226 ], [ -80.849645270138964, 33.497096485634167 ], [ -80.849688474877524, 33.497158373642037 ], [ -80.849656633470602, 33.497173062517469 ], [ -80.849669505528738, 33.497191141129967 ] ] ] } },
{ "type": "Feature", "properties": { "fid": 137.0, "name": "On Campus / Off Campus Student Parking", "source": "SC_2023_RGB WMTS", "note": null }, "geometry": { "type": "Polygon", "coordinates": [ [ [ -80.849907859143485, 33.496416069418331 ], [ -80.849791199271891, 33.496234734253981 ], [ -80.85009567810576, 33.496099587637893 ], [ -80.850013530400744, 33.495967450162198 ], [ -80.849712624088909, 33.496106413229619 ], [ -80.849586576399616, 33.49591120109379 ], [ -80.849286640237267, 33.496039549842294 ], [ -80.848774294747585, 33.495235768530868 ], [ -80.849269001701913, 33.49501567684365 ], [ -80.849437141724863, 33.495273153873612 ], [ -80.849750953337278, 33.495136964333064 ], [ -80.850423406792501, 33.496178408316233 ], [ -80.849907859143485, 33.496416069418331 ] ] ] } },
{ "type": "Feature", "properties": { "fid": 138.0, "name": "Faculty /  Staff Parking", "source": "SC_2023_RGB WMTS", "note": null }, "geometry": { "type": "Polygon", "coordinates": [ [ [ -80.850778846475933, 33.495954098363008 ], [ -80.850436215429738, 33.496111649462335 ], [ -80.849786177089712, 33.495118271634297 ], [ -80.85013521245456, 33.494966059508485 ], [ -80.850778846475933, 33.495954098363008 ] ] ] } },
{ "type": "Feature", "properties": { "fid": 139.0, "name": "Faculty /  Staff Parking", "source": "SC_2023_RGB WMTS", "note": null }, "geometry": { "type": "Polygon", "coordinates": [ [ [ -80.8505514931649, 33.496359992138451 ], [ -80.850025287837724, 33.496597854419953 ], [ -80.849920520927142, 33.496431310773502 ], [ -80.850436215429738, 33.496191760080855 ], [ -80.8505514931649, 33.496359992138451 ] ] ] } },
{ "type": "Feature", "properties": { "fid": 140.0, "name": "On Campus Student Parking", "source": "SC_2023_RGB WMTS", "note": null }, "geometry": { "type": "Polygon", "coordinates": [ [ [ -80.848675027808952, 33.496480157693732 ], [ -80.847832859910312, 33.496805939026785 ], [ -80.847720784334442, 33.496608334102184 ], [ -80.848562952233081, 33.496287892725206 ], [ -80.848675027808952, 33.496480157693732 ] ] ] } },
{ "type": "Feature", "properties": { "fid": 141.0, "name": "On Campus Student Parking", "source": "SC_2023_RGB WMTS", "note": null }, "geometry": { "type": "Polygon", "coordinates": [ [ [ -80.848686069440106, 33.496154365642795 ], [ -80.846875085781136, 33.496849662471966 ], [ -80.846438776186758, 33.49612944450584 ], [ -80.847344268016229, 33.495770579338199 ], [ -80.847568399657177, 33.496156857756098 ], [ -80.848028191628217, 33.495983472318521 ], [ -80.848118269283006, 33.496149381415982 ], [ -80.848582165188944, 33.495975461240732 ], [ -80.848686069440106, 33.496154365642795 ] ] ] } },
{ "type": "Feature", "properties": { "fid": 142.0, "name": "Battiste Hall", "source": "SC_2023_RGB WMTS", "note": null }, "geometry": { "type": "Polygon", "coordinates": [ [ [ -80.848008978672382, 33.497219839771937 ], [ -80.847784827520641, 33.497307960320249 ], [ -80.847722290821423, 33.497198647607263 ], [ -80.847947262256781, 33.497111942909925 ], [ -80.848008978672382, 33.497219839771937 ] ] ] } },
{ "type": "Feature", "properties": { "fid": 143.0, "name": "Mitchell Hall", "source": "SC_2023_RGB WMTS", "note": null }, "geometry": { "type": "Polygon", "coordinates": [ [ [ -80.84773359297165, 33.497307960320249 ], [ -80.847346131695119, 33.497454827701446 ], [ -80.847318558299577, 33.497407042752705 ], [ -80.847243662597151, 33.497436135503143 ], [ -80.847224313509088, 33.497404000491429 ], [ -80.847280860383407, 33.497381690572041 ], [ -80.847250066915777, 33.497326652546242 ], [ -80.847655407421726, 33.497172281275738 ], [ -80.84773359297165, 33.497307960320249 ] ] ] } },
{ "type": "Feature", "properties": { "fid": 144.0, "name": "On Campus Student Parking", "source": "SC_2023_RGB WMTS", "note": null }, "geometry": { "type": "Polygon", "coordinates": [ [ [ -80.846963717521305, 33.49707050408464 ], [ -80.846519393219609, 33.497239812293103 ], [ -80.84643541805255, 33.497092221648209 ], [ -80.84688346277305, 33.496923356367517 ], [ -80.846963717521305, 33.49707050408464 ] ] ] } },
{ "type": "Feature", "properties": { "fid": 145.0, "name": "Off Campus Student Parking", "source": "SC_2023_RGB WMTS", "note": null }, "geometry": { "type": "Polygon", "coordinates": [ [ [ -80.846122287065739, 33.498085622424014 ], [ -80.845667154583552, 33.498257948557928 ], [ -80.845239686624168, 33.497559927378077 ], [ -80.845710080236401, 33.497371997637281 ], [ -80.846122287065739, 33.498085622424014 ] ] ] } },
{ "type": "Feature", "properties": { "fid": 146.0, "name": "Staley Hall", "source": "SC_2023_RGB WMTS", "note": null }, "geometry": { "type": "Polygon", "coordinates": [ [ [ -80.846491745557444, 33.50014534026554 ], [ -80.84625002708529, 33.500254761342099 ], [ -80.846212580393683, 33.500197071050252 ], [ -80.846194777148824, 33.500205809824941 ], [ -80.846221467641442, 33.500246830157728 ], [ -80.846028487404425, 33.500330467742018 ], [ -80.845946152434621, 33.500208689326712 ], [ -80.846131325557053, 33.50012613780504 ], [ -80.846149100052543, 33.500149429324807 ], [ -80.846170605301609, 33.50013958125767 ], [ -80.84589644829488, 33.499730181010236 ], [ -80.845973777402861, 33.499696136501818 ], [ -80.84593072767909, 33.499634897019206 ], [ -80.845852012056085, 33.49966983449476 ], [ -80.84578345328768, 33.499571374300245 ], [ -80.845892639474428, 33.499521614804507 ], [ -80.845961198242819, 33.499621133767391 ], [ -80.846001825661148, 33.499678304183682 ], [ -80.84606911482274, 33.499648660268832 ], [ -80.846364933212385, 33.500075319921997 ], [ -80.846419230015812, 33.500050316586844 ], [ -80.846424604733031, 33.500048852262751 ], [ -80.846491745557444, 33.50014534026554 ] ] ] } },
{ "type": "Feature", "properties": { "fid": 147.0, "name": "Faculty / Staff Parking", "source": "SC_2023_RGB WMTS", "note": null }, "geometry": { "type": "Polygon", "coordinates": [ [ [ -80.847589838045138, 33.499575196628705 ], [ -80.84672655778752, 33.4998861845325 ], [ -80.846674760972064, 33.499794040084893 ], [ -80.84753700659482, 33.499482459674681 ], [ -80.847589838045138, 33.499575196628705 ] ] ] } },
{ "type": "Feature", "properties": { "fid": 148.0, "name": "Faculty / Staff Parking", "source": "SC_2023_RGB WMTS", "note": null }, "geometry": { "type": "Polygon", "coordinates": [ [ [ -80.84752077562456, 33.499451377059764 ], [ -80.846655059650558, 33.499759368595392 ], [ -80.846584837154325, 33.499637290578235 ], [ -80.847451311345196, 33.499324650968788 ], [ -80.84752077562456, 33.499451377059764 ] ] ] } },
{ "type": "Feature", "properties": { "fid": 149.0, "name": "Faculty / Staff Parking", "source": "SC_2023_RGB WMTS", "note": null }, "geometry": { "type": "Polygon", "coordinates": [ [ [ -80.847431077744574, 33.499290905673597 ], [ -80.846562223130121, 33.499601560394304 ], [ -80.846511044022691, 33.499509257350887 ], [ -80.847379197662306, 33.499195098784632 ], [ -80.847431077744574, 33.499290905673597 ] ] ] } },
{ "type": "Feature", "properties": { "fid": 150.0, "name": "Off Campus Student Parking", "source": "SC_2023_RGB WMTS", "note": null }, "geometry": { "type": "Polygon", "coordinates": [ [ [ -80.847322289012098, 33.501521136853825 ], [ -80.846034787415775, 33.502079665921158 ], [ -80.844551516200454, 33.499908777226956 ], [ -80.844753723560515, 33.49981257865732 ], [ -80.845637328410646, 33.499418807785695 ], [ -80.845751895482977, 33.499596368792766 ], [ -80.845315367129231, 33.499800646232984 ], [ -80.845553106557205, 33.500154240205724 ], [ -80.845104303622534, 33.500355502224728 ], [ -80.845374955527603, 33.500753231040591 ], [ -80.845447753041029, 33.500719843676791 ], [ -80.845408378166084, 33.500662759657864 ], [ -80.846474427742351, 33.500179499902814 ], [ -80.846728419419918, 33.500552385754006 ], [ -80.845626596367936, 33.501056524870911 ], [ -80.845997374267498, 33.501612192427316 ], [ -80.847074777466403, 33.501141737599887 ], [ -80.847322289012098, 33.501521136853825 ] ] ] } },
{ "type": "Feature", "properties": { "fid": 151.0, "name": "Tennis courts", "source": "SC_2023_RGB WMTS", "note": null }, "geometry": { "type": "Polygon", "coordinates": [ [ [ -80.844922334004295, 33.50138792022107 ], [ -80.844750305126212, 33.501126521789217 ], [ -80.845205225937107, 33.500922502952491 ], [ -80.84518228875335, 33.50090337616188 ], [ -80.844605036295846, 33.501158399689032 ], [ -80.844410070234048, 33.500871498168152 ], [ -80.84499879128343, 33.500603722557415 ], [ -80.84538107767915, 33.501193465365255 ], [ -80.844922334004295, 33.50138792022107 ] ] ] } },
{ "type": "Feature", "properties": { "fid": 154.0, "name": "On Campus Student Parking", "source": "SC_2023_RGB WMTS", "note": null }, "geometry": { "type": "Polygon", "coordinates": [ [ [ -80.847867155132036, 33.501963339883538 ], [ -80.848022390741804, 33.502211444050815 ], [ -80.847277218201825, 33.502532326013629 ], [ -80.847121161785026, 33.502290549577822 ], [ -80.847867155132036, 33.501963339883538 ] ] ] } },
{ "type": "Feature", "properties": { "fid": 155.0, "name": "I.P. Stanback Museum & Planetarium", "source": "SC_2023_RGB WMTS", "note": null }, "geometry": { "type": "Polygon", "coordinates": [ [ [ -80.849386085246067, 33.499791393723399 ], [ -80.849226234516507, 33.499843553629589 ], [ -80.849168317585537, 33.499735370085432 ], [ -80.849274884738577, 33.499696733072611 ], [ -80.849242451257197, 33.499634913816223 ], [ -80.849135884104186, 33.499673550856642 ], [ -80.849089550559384, 33.49957116266183 ], [ -80.849121984040735, 33.499557639683651 ], [ -80.849112717331792, 33.499534457430435 ], [ -80.84908491720492, 33.499532525575724 ], [ -80.84906870046423, 33.499517070736452 ], [ -80.84905248372354, 33.499499684038952 ], [ -80.849033950305639, 33.499470706202075 ], [ -80.849036266982878, 33.499447523925561 ], [ -80.849047850369075, 33.49942240978568 ], [ -80.849071017141469, 33.499405023069187 ], [ -80.849101133945609, 33.499391500065059 ], [ -80.849131250749707, 33.499391500065059 ], [ -80.849154417522115, 33.499393431922918 ], [ -80.849179900971748, 33.499405023069187 ], [ -80.849205384421353, 33.499424341642857 ], [ -80.849416202050165, 33.49934899918118 ], [ -80.849446318854277, 33.499405023069187 ], [ -80.849492652399078, 33.499389568207157 ], [ -80.849622386324469, 33.499638777521042 ], [ -80.84939535195501, 33.499721847132911 ], [ -80.849383768568828, 33.499704460476551 ], [ -80.849349018410237, 33.499716051581174 ], [ -80.849386085246067, 33.499791393723399 ] ] ] } },
{ "type": "Feature", "properties": { "fid": 158.0, "name": "Police Storage", "source": "SC_2023_RGB WMTS", "note": null }, "geometry": { "type": "Polygon", "coordinates": [ [ [ -80.852033503530947, 33.49811268774237 ], [ -80.851702659158263, 33.497917465381732 ], [ -80.851758767268237, 33.49784808873433 ], [ -80.852097350690599, 33.498040084436525 ], [ -80.852033503530947, 33.49811268774237 ] ] ] } },
{ "type": "Feature", "properties": { "fid": 159.0, "name": "Faculty / Staff Parking", "source": "SC_2023_RGB WMTS", "note": null }, "geometry": { "type": "Polygon", "coordinates": [ [ [ -80.849756665821204, 33.499721888446153 ], [ -80.849708140553219, 33.499740027775957 ], [ -80.849493960059959, 33.499329798927057 ], [ -80.849542485327973, 33.499311659511307 ], [ -80.849756665821204, 33.499721888446153 ] ] ] } },
{ "type": "Feature", "properties": { "fid": 160.0, "name": "Faculty / Staff Parking", "source": "SC_2023_RGB WMTS", "note": null }, "geometry": { "type": "Polygon", "coordinates": [ [ [ -80.850350682032925, 33.499798631738521 ], [ -80.849903914910328, 33.499847468343681 ], [ -80.849836983506194, 33.499706539779524 ], [ -80.849915627906043, 33.499682819107548 ], [ -80.849967499744253, 33.499769329762188 ], [ -80.850337295752098, 33.499728865111912 ], [ -80.850350682032925, 33.499798631738521 ] ] ] } },
{ "type": "Feature", "properties": { "fid": 161.0, "name": "On Campus Student Parking", "source": "SC_2023_RGB WMTS", "note": null }, "geometry": { "type": "Polygon", "coordinates": [ [ [ -80.849878815633758, 33.500161417290485 ], [ -80.849462167642997, 33.500313507704192 ], [ -80.849254680290187, 33.499946536800977 ], [ -80.849684714561761, 33.499794445742502 ], [ -80.849878815633758, 33.500160021964348 ], [ -80.849662961855429, 33.500239555518057 ], [ -80.849629496153341, 33.500178161202335 ], [ -80.849662961855429, 33.500169789246819 ], [ -80.84952909904716, 33.499924211524714 ], [ -80.84944878136217, 33.49995211811914 ], [ -80.849585990740664, 33.50019350978534 ], [ -80.849629496153341, 33.500179556528174 ], [ -80.849662961855429, 33.500236764868298 ], [ -80.849878815633758, 33.500161417290485 ] ] ] } },
{ "type": "Feature", "properties": { "fid": 162.0, "name": "Faculty / Staff Parking", "source": "SC_2023_RGB WMTS", "note": null }, "geometry": { "type": "Polygon", "coordinates": [ [ [ -80.85067940674962, 33.498668618512497 ], [ -80.851042757446862, 33.499138853855619 ], [ -80.851297553277618, 33.498933022857464 ], [ -80.851097024109436, 33.498639105748865 ], [ -80.851807209563177, 33.498290854378268 ], [ -80.851821366083854, 33.49825543890617 ], [ -80.851927539988893, 33.498155094989869 ], [ -80.851991244331913, 33.4981924780311 ], [ -80.85240178343139, 33.497857997614545 ], [ -80.852489081975534, 33.498021302920549 ], [ -80.851424983505012, 33.498633203194942 ], [ -80.851604299433532, 33.49894603799877 ], [ -80.85102860092617, 33.499315929264206 ], [ -80.850898832820008, 33.499205749052543 ], [ -80.850849284997679, 33.499229359109705 ], [ -80.850516606761857, 33.498751254197124 ], [ -80.85067940674962, 33.498668618512497 ] ] ] } },
{ "type": "Feature", "properties": { "fid": 136.0, "name": "Truth Hall", "source": "SC_2023_RGB WMTS", "note": null }, "geometry": { "type": "Polygon", "coordinates": [ [ [ -80.848121471170515, 33.497186621477191 ], [ -80.848090984717075, 33.49713408049643 ], [ -80.848035431624126, 33.497154418944383 ], [ -80.847960231705642, 33.497026738608653 ], [ -80.848019849659025, 33.497002445426112 ], [ -80.847992073112579, 33.496953294082431 ], [ -80.848124858554229, 33.496905272627771 ], [ -80.848156028322165, 33.496957811566858 ], [ -80.84822106025176, 33.496933520545504 ], [ -80.848239352123841, 33.496964028286314 ], [ -80.848386364577095, 33.496908662378388 ], [ -80.848368750181791, 33.49687532982491 ], [ -80.848436497856099, 33.496849341723454 ], [ -80.848407366356142, 33.496797365497159 ], [ -80.848559220112705, 33.496738090587563 ], [ -80.848589607600061, 33.496788326150266 ], [ -80.848657951933276, 33.496762306515819 ], [ -80.848731877716133, 33.496885499079866 ], [ -80.848668872379022, 33.496911487170465 ], [ -80.848702478048438, 33.496967334437016 ], [ -80.8485496364722, 33.497027868523958 ], [ -80.848516440111808, 33.496971937698852 ], [ -80.84843919319357, 33.49700285103544 ], [ -80.848419560937515, 33.496967418034636 ], [ -80.848271193530763, 33.497024478778009 ], [ -80.848291517833061, 33.497061765976142 ], [ -80.848225125112194, 33.497086624099303 ], [ -80.848254256612165, 33.497138035195015 ], [ -80.848121471170515, 33.497186621477191 ] ] ] } },
{ "type": "Feature", "properties": { "fid": 156.0, "name": "Engineering & Computer Science Complex / Bethea Hall", "source": "SC_2023_RGB WMTS", "note": null }, "geometry": { "type": "Polygon", "coordinates": [ [ [ -80.851010014214282, 33.499004896729048 ], [ -80.850828146547443, 33.498740300448027 ], [ -80.850814603210551, 33.498749980814026 ], [ -80.850775907962273, 33.498701578973204 ], [ -80.85074301700125, 33.49871771292316 ], [ -80.850669496029525, 33.49861445559155 ], [ -80.850704321752985, 33.498598321622353 ], [ -80.850692713178475, 33.498578960855369 ], [ -80.851319576200396, 33.498282095219217 ], [ -80.851302163338701, 33.498253053961029 ], [ -80.851483492354376, 33.498165140654258 ], [ -80.851420183845903, 33.498072352579975 ], [ -80.851509182916928, 33.49798038833945 ], [ -80.851681376771708, 33.498083646427347 ], [ -80.851764571555478, 33.498217559076657 ], [ -80.851731680594455, 33.498235306520655 ], [ -80.851762636793055, 33.49828693542797 ], [ -80.851060318037028, 33.49863220295417 ], [ -80.851238316179035, 33.498890345999349 ], [ -80.851010014214282, 33.499004896729048 ] ] ] } },
{ "type": "Feature", "properties": { "fid": 72.0, "name": "Turner Hall Wing A", "source": "SC_2023_RGB WMTS", "note": null }, "geometry": { "type": "Polygon", "coordinates": [ [ [ -80.849896441770866, 33.498519897388512 ], [ -80.849963630050155, 33.498487226966169 ], [ -80.85000513005015, 33.498546726966168 ], [ -80.849938011990687, 33.498579410542952 ], [ -80.849952111543161, 33.498599576970172 ], [ -80.849183711543162, 33.49897277697017 ], [ -80.849109511543162, 33.498866476970171 ], [ -80.849670811543149, 33.498593776970168 ], [ -80.849877811543152, 33.498493176970172 ], [ -80.849896441770866, 33.498519897388512 ] ] ] } },
{ "type": "Feature", "properties": { "fid": 88.0, "name": "Smith-Hammond-Middleton Memorial Center", "source": "SC_2023_RGB WMTS", "note": null }, "geometry": { "type": "Polygon", "coordinates": [ [ [ -80.846049087195496, 33.501076503634209 ], [ -80.846276687195498, 33.500974303634209 ], [ -80.846226144634628, 33.500893855487362 ], [ -80.846693544634618, 33.500686755487365 ], [ -80.846776144634617, 33.500819755487363 ], [ -80.846902044634618, 33.501010555487362 ], [ -80.84697844463463, 33.501133755487366 ], [ -80.846511044634624, 33.501340955487365 ], [ -80.846460446745127, 33.501261551077413 ], [ -80.8462342871955, 33.501363203634213 ], [ -80.846049087195496, 33.501076503634209 ] ] ] } },
{ "type": "Feature", "properties": { "fid": 999.0, "name": "University Village", "source": "SC_2023_RGB WMTS", "note": null }, "geometry": { "type": "MultiPolygon", "coordinates": [ [ [ [ -80.844659194842748, 33.502996240226047 ], [ -80.844502128492806, 33.502852535959128 ], [ -80.844702824384399, 33.502692460039107 ], [ -80.844864253688485, 33.502837074093406 ], [ -80.844659194842748, 33.502996240226047 ] ] ], [ [ [ -80.844447046196478, 33.502804785762976 ], [ -80.844289979846536, 33.502661081496058 ], [ -80.844490675738129, 33.502501005576036 ], [ -80.844652105042215, 33.502645619630336 ], [ -80.844447046196478, 33.502804785762976 ] ] ], [ [ [ -80.844439956395945, 33.502454165167265 ], [ -80.844234897550209, 33.502613331299905 ], [ -80.844077831200266, 33.502469627032987 ], [ -80.844278527091859, 33.502309551112965 ], [ -80.844439956395945, 33.502454165167265 ] ] ], [ [ [ -80.844065833076328, 33.503236354381116 ], [ -80.844227262380414, 33.503380968435415 ], [ -80.844022203534678, 33.503540134568055 ], [ -80.843865137184736, 33.503396430301137 ], [ -80.844065833076328, 33.503236354381116 ] ] ], [ [ [ -80.843853684430059, 33.503044899918045 ], [ -80.844015113734145, 33.503189513972345 ], [ -80.843810054888408, 33.503348680104985 ], [ -80.843652988538466, 33.503204975838067 ], [ -80.843853684430059, 33.503044899918045 ] ] ], [ [ [ -80.843436476938038, 33.50300806425237 ], [ -80.843637172829631, 33.502847988332348 ], [ -80.843798602133717, 33.502992602386648 ], [ -80.84359354328798, 33.503151768519288 ], [ -80.843436476938038, 33.50300806425237 ] ] ], [ [ [ -80.843363500356261, 33.503327854266722 ], [ -80.84352601043372, 33.503465372372226 ], [ -80.843331659869094, 33.503633095355468 ], [ -80.843164754896947, 33.503494836991571 ], [ -80.843363500356261, 33.503327854266722 ] ] ] ] } },
{ "type": "Feature", "properties": { "fid": 0.0, "name": null, "source": null, "note": null }, "geometry": null },
{ "type": "Feature", "properties": { "fid": 0.0, "name": null, "source": null, "note": null }, "geometry": null },
{ "type": "Feature", "properties": { "fid": 0.0, "name": null, "source": null, "note": null }, "geometry": null }
]
}
