{
"type": "FeatureCollection",
"name": "tours",
"crs": { "type": "name", "properties": { "name": "urn:ogc:def:crs:OGC:1.3:CRS84" } },
"features": [
{ "type": "Feature", "properties": { "fid": 4, "name": "Oliver C. Dawson Stadium", "tour_group": "mainTour", "order_num": 5, "description": "Oliver C. Dawson Stadium is a 22,000 seat multi purpose stadium. The Home of SC State Bulldogs football", "off_campus": false, "off_campus_distance": null }, "geometry": { "type": "Polygon", "coordinates": [ [ [ -80.845502761162891, 33.49835202914452 ], [ -80.84539201821886, 33.498408464460475 ], [ -80.845641189842908, 33.498808641100013 ], [ -80.84557658979223, 33.498834293385613 ], [ -80.845588894563789, 33.498859945663611 ], [ -80.845499684969994, 33.499152381095499 ], [ -80.845484304005552, 33.499206250672565 ], [ -80.844789084412582, 33.49952946743101 ], [ -80.844435322230296, 33.499478163264222 ], [ -80.843844693195535, 33.498554683062459 ], [ -80.843909293246199, 33.498516204506927 ], [ -80.843660121622179, 33.498108330766833 ], [ -80.844496846088077, 33.497710716151538 ], [ -80.844899827356599, 33.497797934997706 ], [ -80.844930589285497, 33.497846674902874 ], [ -80.844989036950395, 33.497818457066387 ], [ -80.84522590380287, 33.498159635745459 ], [ -80.845342799132681, 33.498110896016485 ], [ -80.845502761162891, 33.49835202914452 ] ] ] } },
{ "type": "Feature", "properties": { "fid": 6, "name": "Olar Farm", "tour_group": "mainTour", "order_num": 6, "description": "Olar Farm", "off_campus": true, "off_campus_distance": "30 mi from campus" }, "geometry": { "type": "Polygon", "coordinates": [ [ [ -80.855111766530257, 33.491459930432804 ], [ -80.855065336522671, 33.491466383956613 ], [ -80.855034383184289, 33.491281382750017 ], [ -80.854969897062631, 33.491279231570878 ], [ -80.85507049541242, 33.491182428454017 ], [ -80.85514529931352, 33.491259870956164 ], [ -80.855106607640536, 33.491277080391676 ], [ -80.855129822644329, 33.491459930432804 ], [ -80.855111766530257, 33.491459930432804 ] ] ] } },
{ "type": "Feature", "properties": { "fid": 2, "name": "S-H-M Memorial Square", "tour_group": "mainTour", "order_num": 3, "description": "The Smith-Hammond-Middleton Legacy Plaza at South Carolina State University, dedicated in 2022, honors the three victims of the 1968 Orangeburg Massacre", "off_campus": null, "off_campus_distance": null }, "geometry": { "type": "Polygon", "coordinates": [ [ [ -80.853114940337136, 33.496088138409029 ], [ -80.853745517606271, 33.495861781288376 ], [ -80.853890100885991, 33.496155345318179 ], [ -80.853900704997457, 33.49617833714354 ], [ -80.853904946642047, 33.496200444662172 ], [ -80.85390388623091, 33.49622343647556 ], [ -80.853897523764033, 33.496242891082105 ], [ -80.853887980063689, 33.496257039884135 ], [ -80.853876315541072, 33.496267651484139 ], [ -80.853861469785016, 33.496274725883417 ], [ -80.853313237221712, 33.496457775763737 ], [ -80.853114940337136, 33.496088138409029 ] ] ] } },
{ "type": "Feature", "properties": { "fid": 31, "name": "Kirkland W. Green Student Center", "tour_group": "mainTour", "order_num": 2, "description": "The Kirkland W. Green Student Center is the central hub for campus life offering dining, social, and recreational spaces for students", "off_campus": null, "off_campus_distance": null }, "geometry": { "type": "Polygon", "coordinates": [ [ [ -80.851646467101858, 33.49719993928074 ], [ -80.851582667101852, 33.497232839280741 ], [ -80.851596467101857, 33.49725033928074 ], [ -80.851525667101853, 33.497327539280739 ], [ -80.851547967101851, 33.497342039280738 ], [ -80.851441967101863, 33.497471939280736 ], [ -80.851417067101863, 33.497456339280738 ], [ -80.85137116710186, 33.49750573928074 ], [ -80.851380000929638, 33.497511767701042 ], [ -80.851354718070667, 33.497539216190432 ], [ -80.851345367101857, 33.497532439280739 ], [ -80.851294167101855, 33.497591239280737 ], [ -80.851098967101862, 33.497309739280738 ], [ -80.851184767101856, 33.497268439280738 ], [ -80.851019467101864, 33.497030039280737 ], [ -80.851169367101861, 33.496957839280739 ], [ -80.851187767101862, 33.496984339280736 ], [ -80.851512767101852, 33.496827539280737 ], [ -80.851617167101864, 33.496978139280742 ], [ -80.851738767101864, 33.496919439280738 ], [ -80.851715767101865, 33.49688613928074 ], [ -80.851751167101853, 33.496869039280739 ], [ -80.851774367101854, 33.49690253928074 ], [ -80.851789867101857, 33.496895139280738 ], [ -80.851858667101851, 33.496994239280738 ], [ -80.851592667101855, 33.497122439280737 ], [ -80.851646467101858, 33.49719993928074 ] ] ] } },
{ "type": "Feature", "properties": { "fid": 69, "name": "Crawford Zimmerman Building", "tour_group": "mainTour", "order_num": 1, "description": "Crawford-Zimmerman Building is a key administrative and operations facility located on campus. It houses several, departments, including Procurement & Compliance, and serves as a hub for student services, such as the SCSU Bookstore.", "off_campus": false, "off_campus_distance": null }, "geometry": { "type": "Polygon", "coordinates": [ [ [ -80.852747590529972, 33.494996564944685 ], [ -80.852669015347047, 33.495190414010054 ], [ -80.852709939921482, 33.495266861409462 ], [ -80.8522941462451, 33.495432042166982 ], [ -80.852081338457964, 33.495053900628939 ], [ -80.8523244, 33.4949627 ], [ -80.852207386147271, 33.494759030991133 ], [ -80.8526354, 33.4945937 ], [ -80.852837624593775, 33.494954245724799 ], [ -80.852747590529972, 33.494996564944685 ] ] ] } },
{ "type": "Feature", "properties": { "fid": 100, "name": "Nance Hall", "tour_group": "mainTour", "order_num": 4, "description": "Nance Hall serves as a hub for academic activities offering modern classrooms and resources to support student learning.", "off_campus": null, "off_campus_distance": null }, "geometry": { "type": "Polygon", "coordinates": [ [ [ -80.85482937804862, 33.496271265141928 ], [ -80.854457461674542, 33.496366791027313 ], [ -80.854366714079262, 33.496108746834949 ], [ -80.854738630453326, 33.496010739464218 ], [ -80.85482937804862, 33.496271265141928 ] ] ] } }
]
}
